QIANFAN_1_1
1 69410U 26125K   26238.89092484  .00000054  00000+0  64656-4 0  9990
2 69410  88.9907 272.8293 0001675 100.6808 259.4532 13.51029533 11495
QIANFAN_1_2
1 60392U 24140P   26238.88891872  .00000053  00000+0  63598-4 0  9995
2 60392  88.9658 272.5581 0016762 178.0661 182.0558 13.51025718101999
QIANFAN_1_3
1 69406U 26125F   26238.96094490  .00000070  00000+0  89517-4 0  9993
2 69406  88.9903 272.8181 0001743  97.0539 263.0810 13.51028221 11503
QIANFAN_1_4
1 60394U 24140R   26238.88475274  .00000058  00000+0  71217-4 0  9993
2 60394  88.9684 272.7035 0014568 180.9710 179.1415 13.51024663101891
QIANFAN_1_5
1 69408U 26125H   26238.88277712  .00000061  00000+0  75325-4 0  9998
2 69408  88.9887 272.8224 0001904  90.4833 269.6537 13.51032471 11495
QIANFAN_1_6
1 60395U 24140S   26238.88071315  .00000063  00000+0  78479-4 0  9995
2 60395  88.9695 272.7781 0015188 174.9725 185.1582 13.51020809102857
QIANFAN_1_7
1 60381U 24140C   26238.87660839  .00000076  00000+0  98749-4 0  9990
2 60381  88.9662 272.5107 0014363 168.5840 191.5640 13.51022097102034
QIANFAN_1_8
1 69402U 26125B   26238.87458157  .00000049  00000+0  56754-4 0  9996
2 69402  88.9902 272.8445 0001892  92.3900 267.7468 13.51017068 11480
QIANFAN_1_9
1 60389U 24140L   26238.87248804  .00000063  00000+0  78435-4 0  9998
2 60389  88.9624 272.4302 0014828 166.5621 193.5928 13.51020445101830
QIANFAN_1_10
1 60380U 24140B   26238.86834276  .00000069  00000+0  88182-4 0  9998
2 60380  88.9670 272.3985 0013645 156.1959 203.9826 13.51033736102126
QIANFAN_1_11
1 69401U 26125A   26238.94040867  .00000072  00000+0  92519-4 0  9993
2 69401  88.9851 272.8229 0001783  95.5062 264.6293 13.51026856 11493
QIANFAN_1_12
1 60391U 24140N   26238.93826452  .00000067  00000+0  85072-4 0  9998
2 60391  88.9927 272.7586 0013134 175.6937 184.4330 13.51022709101994
QIANFAN_1_13
1 69415U 26125Q   26238.93628206  .00000049  00000+0  57121-4 0  9990
2 69415  88.9898 272.7779 0001812  94.5349 265.6009 13.51023031 11519
QIANFAN_1_14
1 60396U 24140T   26238.93420708  .00000058  00000+0  71436-4 0  9996
2 60396  88.9689 272.2893 0015133 157.9271 202.2535 13.51020260102251
QIANFAN_1_15
1 60386U 24140H   26238.93013876  .00000052  00000+0  62306-4 0  9999
2 60386  88.9690 272.5863 0017080 167.9523 192.2040 13.51025358102078
QIANFAN_1_16
1 69414U 26125P   26238.92798437  .00000046  00000+0  52431-4 0  9998
2 69414  88.9923 272.8012 0008322 318.7297  41.3224 13.50978758 11516
QIANFAN_1_17
1 60382U 24140D   26238.92582967  .00000024  00000+0  18584-4 0  9994
2 60382  88.9687 272.4680 0013816 158.4748 201.6987 13.51020539102164
QIANFAN_1_18
1 69416U 26125R   26238.92397119  .00000038  00000+0  39768-4 0  9991
2 69416  88.9893 272.7932 0001737  96.5730 263.5619 13.51018989 11518
QIANFAN_1_19
1 60384U 24140F   26238.92175401  .00000055  00000+0  66888-4 0  9991
2 60384  88.9689 272.3465 0013724 164.1143 196.0442 13.51023431102223
QIANFAN_1_20
1 69413U 26125N   26238.91679440  .00000075  00000+0  99516-4 0  9995
2 69413  88.9920 272.7986 0023374 324.1561  35.8021 13.50116089 11514
QIANFAN_1_21
1 69411U 26125L   26238.91574355  .00000043  00000+0  48356-4 0  9993
2 69411  88.9885 272.8082 0001698  92.4879 267.6467 13.51026423 11503
QIANFAN_1_22
1 60379U 24140A   26238.91349128  .00000066  00000+0  82786-4 0  9990
2 60379  88.9683 272.5893 0017367 185.0149 175.0831 13.51024977102071
QIANFAN_1_23
1 69412U 26125M   26238.91159276  .00000074  00000+0  96662-4 0  9992
2 69412  88.9918 272.8154 0001770  96.2530 263.8822 13.51025336 11491
QIANFAN_1_24
1 60388U 24140K   26238.90941441  .00000069  00000+0  87384-4 0  9997
2 60388  88.9699 272.0329 0015973 145.7314 214.4871 13.51020911102183
QIANFAN_1_25
1 69409U 26125J   26238.90752484  .00000053  00000+0  63700-4 0  9991
2 69409  88.9900 272.8287 0001748  95.6437 264.4913 13.51031947 11492
QIANFAN_1_26
1 60387U 24140J   26238.90529292  .00000079  00000+0  10407-3 0  9994
2 60387  88.9688 272.6590 0016786 167.6599 192.4967 13.51020705102055
QIANFAN_1_27
1 69418U 26125T   26238.90335638  .00000077  00000+0  10093-3 0  9991
2 69418  88.9903 272.8285 0001646  97.7984 262.3354 13.51025470 11490
QIANFAN_1_28
1 60383U 24140E   26238.90120497  .00000082  00000+0  10846-3 0  9995
2 60383  88.9662 272.5326 0015191 180.2200 179.8947 13.51030221102026
QIANFAN_1_29
1 69403U 26125C   26238.89916770  .00000052  00000+0  62023-4 0  9999
2 69403  88.9917 272.7782 0005588 335.9538  24.1351 13.51018550 11527
QIANFAN_1_30
1 60393U 24140Q   26238.89717758  .00000088  00000+0  11672-3 0  9990
2 60393  88.9681 272.5750 0013076 162.5690 197.5912 13.51026608101982
QIANFAN_1_31
1 69407U 26125G   26238.89503509  .00000063  00000+0  78322-4 0  9996
2 69407  88.9885 272.8237 0001578 100.1912 259.9417 13.51027793 11489
QIANFAN_1_32
1 60390U 24140M   26238.96710872  .00000065  00000+0  82152-4 0  9992
2 60390  88.9667 272.5758 0013402 173.4949 186.6379 13.51022830101970
QIANFAN_2_1
1 63168U 25046K   26238.89203113  .00000128  00000+0  17972-3 0  9998
2 63168  88.9684 293.2317 0014969 104.6762 255.6050 13.51017962 82199
QIANFAN_2_2
1 69325U 26121A   26238.59160236  .00000096  00000+0  12978-3 0  9994
2 69325  89.0137 293.5108 0001462 119.5320 240.5977 13.51020624 11670
QIANFAN_2_3
1 63160U 25046B   26238.88375419  .00000081  00000+0  10614-3 0  9992
2 63160  88.9683 293.2258 0002137  93.4223 266.7173 13.51017831 82199
QIANFAN_2_4
1 63166U 25046H   26238.87980349  .00000127  00000+0  17684-3 0  9996
2 63166  88.9684 293.1214 0015868 108.0572 252.2309 13.51026907 82254
QIANFAN_2_5
1 63175U 25046S   26238.87556176  .00000118  00000+0  16416-3 0  9995
2 63175  88.9684 293.3559 0018894 102.3106 258.0162 13.51022149 82121
QIANFAN_2_6
1 63161U 25046C   26238.94570499  .00000125  00000+0  17491-3 0  9994
2 63161  88.9684 293.4566 0018398 103.2910 257.0295 13.51027360 82077
QIANFAN_2_7
1 63162U 25046D   26238.94152988  .00000071  00000+0  90408-4 0  9994
2 63162  88.9684 293.4368 0015875 103.6018 256.6903 13.51022414 82085
QIANFAN_2_8
1 63165U 25046G   26238.93726667  .00000110  00000+0  15164-3 0  9996
2 63165  88.9687 293.4155 0016997 104.0775 256.2267 13.51019687 82106
QIANFAN_2_9
1 63167U 25046J   26238.93314198  .00000134  00000+0  18867-3 0  9999
2 63167  88.9683 293.1832 0017136  98.9132 261.3960 13.51022798 82213
QIANFAN_2_10
1 69326U 26121B   26238.55867780  .00000159  00000+0  22713-3 0  9997
2 69326  89.0140 293.5054 0001578 103.0648 257.0679 13.51033683 11675
QIANFAN_2_11
1 63172U 25046P   26238.92495454  .00000134  00000+0  18922-3 0  9991
2 63172  88.9685 293.0989 0013386 106.9378 253.3242 13.51022557 82271
QIANFAN_2_12
1 63170U 25046M   26238.92081447  .00000096  00000+0  12890-3 0  9997
2 63170  88.9684 293.3614 0017972 101.8556 258.4612 13.51022722 82128
QIANFAN_2_13
1 63171U 25046N   26238.91669574  .00000128  00000+0  17930-3 0  9996
2 63171  88.9683 293.2316 0015522 103.6377 256.6504 13.51026653 82190
QIANFAN_2_14
1 63174U 25046R   26238.91265615  .00000122  00000+0  17045-3 0  9998
2 63174  88.9684 293.1632 0014303 110.1392 250.1300 13.51026897 82238
QIANFAN_2_15
1 63164U 25046F   26238.90889697  .00000017  00000+0  69216-5 0  9990
2 63164  88.9684 293.3020 0017320 105.4633 254.8433 13.51011292 82159
QIANFAN_2_16
1 63176U 25046T   26238.90436103  .00000103  00000+0  14107-3 0  9996
2 63176  88.9685 293.3260 0015815 100.7604 259.5328 13.51018348 82145
QIANFAN_2_17
1 63159U 25046A   26238.90029812  .00000107  00000+0  14617-3 0  9992
2 63159  88.9683 293.3344 0017244 100.1810 260.1288 13.51023678 82132
QIANFAN_2_18
1 63173U 25046Q   26238.89627167  .00000112  00000+0  15416-3 0  9997
2 63173  88.9682 293.2040 0013914 102.8352 257.4354 13.51030648 82205
QIANFAN_3_1
1 68644U 26075J   26238.88911131  .00000094  00000+0  12663-3 0  9994
2 68644  88.9902 313.7854 0002493  98.1867 261.9567 13.51020449 19357
QIANFAN_3_2
1 68641U 26075F   26238.88493315  .00000099  00000+0  13437-3 0  9995
2 68641  88.9904 313.8045 0002306 102.4794 257.6616 13.51025356 19348
QIANFAN_3_3
1 68637U 26075B   26238.88085926  .00000103  00000+0  14086-3 0  9992
2 68637  88.9905 313.8242 0002305 103.3980 256.7428 13.51029293 19333
QIANFAN_3_4
1 68640U 26075E   26238.87669280  .00000112  00000+0  15531-3 0  9992
2 68640  88.9909 313.7895 0002427 103.1546 256.9876 13.51027093 19352
QIANFAN_3_5
1 68638U 26075C   26238.94266700  .00000107  00000+0  14714-3 0  9993
2 68638  88.9904 313.7770 0002313 102.9529 257.1881 13.51018595 19365
QIANFAN_3_6
1 68653U 26075T   26238.93842246  .00000108  00000+0  14867-3 0  9994
2 68653  88.9908 313.7433 0002703  93.7121 266.4340 13.51026602 19383
QIANFAN_3_7
1 68648U 26075N   26238.93439144  .00000112  00000+0  15528-3 0  9997
2 68648  88.9906 313.7773 0002256 103.5229 256.6174 13.51021343 19365
QIANFAN_3_8
1 68652U 26075S   26238.93027896  .00000098  00000+0  13379-3 0  9994
2 68652  88.9904 313.7756 0002282 103.9504 256.1901 13.51021379 19360
QIANFAN_3_9
1 68649U 26075P   26238.92617128  .00000098  00000+0  13384-3 0  9998
2 68649  88.9904 313.7754 0002559  97.0099 263.1343 13.51024757 19353
QIANFAN_3_10
1 68645U 26075K   26238.92198041  .00000102  00000+0  13856-3 0  9992
2 68645  88.9906 313.7933 0002282 105.7785 254.3618 13.51022317 19359
QIANFAN_3_11
1 68651U 26075R   26238.91795964  .00000105  00000+0  14407-3 0  9991
2 68651  88.9904 313.7749 0002628  96.8122 263.3328 13.51024421 19365
QIANFAN_3_12
1 68642U 26075G   26238.91375859  .00000112  00000+0  15468-3 0  9994
2 68642  88.9904 313.8087 0002342  98.6122 261.5294 13.51021955 19343
QIANFAN_3_13
1 68647U 26075M   26238.90957807  .00000111  00000+0  15355-3 0  9991
2 68647  88.9908 313.7764 0002498  92.2619 267.8818 13.51029457 19364
QIANFAN_3_14
1 68639U 26075D   26238.90558224  .00000112  00000+0  15534-3 0  9992
2 68639  88.9903 313.7889 0002765  98.5827 261.5638 13.51021121 19355
QIANFAN_3_15
1 68643U 26075H   26238.90139993  .00000116  00000+0  16139-3 0  9991
2 68643  88.9897 313.7652 0002661 100.8471 259.2980 13.51022695 19358
QIANFAN_3_16
1 68646U 26075L   26238.89723482  .00000097  00000+0  13090-3 0  9995
2 68646  88.9906 313.7916 0002527  95.4673 264.6767 13.51020256 19353
QIANFAN_3_17
1 68650U 26075Q   26238.89318373  .00000101  00000+0  13848-3 0  9996
2 68650  88.9902 313.7666 0002725  93.8469 266.2994 13.51030043 19334
QIANFAN_4_1
1 69077U 26104E   26238.88617087  .00000113  00000+0  15696-3 0  9992
2 69077  88.9921 334.2483 0001925 103.5358 256.6008 13.51021688 14701
QIANFAN_4_2
1 69079U 26104G   26238.88207379  .00000109  00000+0  15006-3 0  9993
2 69079  88.9926 334.2542 0001707 103.4821 256.6520 13.51021541 14691
QIANFAN_4_3
1 69074U 26104B   26238.87787035  .00000112  00000+0  15418-3 0  9990
2 69074  88.9922 334.2880 0001851 111.5227 248.6122 13.51030470 14686
QIANFAN_4_4
1 69078U 26104F   26238.87366464  .00000106  00000+0  14473-3 0  9996
2 69078  88.9923 334.3057 0002320 108.5470 251.5934 13.51028491 14679
QIANFAN_4_5
1 69073U 26104A   26238.94369323  .00000106  00000+0  14615-3 0  9994
2 69073  88.9944 334.2521 0002248 109.3927 250.7467 13.51023357 14710
QIANFAN_4_6
1 69076U 26104D   26238.93958384  .00000113  00000+0  15691-3 0  9990
2 69076  88.9928 334.2807 0002484 109.5441 250.5978 13.51029961 14696
QIANFAN_4_7
1 69090U 26104T   26238.93543658  .00000110  00000+0  15149-3 0  9995
2 69090  88.9927 334.2422 0002246 113.5077 246.6310 13.51027507 14713
QIANFAN_4_8
1 69088U 26104R   26238.93132766  .00000122  00000+0  17045-3 0  9996
2 69088  88.9918 334.2200 0002090 114.3696 245.7674 13.51027057 14721
QIANFAN_4_9
1 69089U 26104S   26238.92728557  .00000115  00000+0  15939-3 0  9997
2 69089  88.9929 334.2244 0001936 101.6265 258.5104 13.51023337 14728
QIANFAN_4_10
1 69087U 26104Q   26238.92313293  .00000117  00000+0  16241-3 0  9991
2 69087  88.9920 334.2212 0001867 112.8856 247.2493 13.51024605 14720
QIANFAN_4_11
1 69084U 26104M   26238.91900406  .00000113  00000+0  15680-3 0  9997
2 69084  88.9920 334.2720 0002155 115.0785 245.0590 13.51035435 14691
QIANFAN_4_12
1 69086U 26104P   26238.91477238  .00000118  00000+0  16336-3 0  9995
2 69086  88.9923 334.2570 0001978 117.8135 242.3217 13.51031202 14706
QIANFAN_4_13
1 69080U 26104H   26238.91084074  .00000108  00000+0  14906-3 0  9991
2 69080  88.9930 334.2766 0001804 109.4676 250.6670 13.51024882 14699
QIANFAN_4_14
1 69085U 26104N   26238.90684001  .00000046  00000+0  51852-4 0  9994
2 69085  88.9921 334.2543 0002343 111.2918 248.8484 13.51025871 14709
QIANFAN_4_15
1 69075U 26104C   26238.90242693  .00000040  00000+0  42974-4 0  9999
2 69075  88.9925 334.2191 0002001 111.0456 249.0909 13.51019058 14724
QIANFAN_4_16
1 69082U 26104K   26238.89850255  .00000111  00000+0  15383-3 0  9996
2 69082  88.9926 334.2726 0001714 105.2403 254.8938 13.51027934 14698
QIANFAN_4_17
1 69083U 26104L   26238.89437744  .00000105  00000+0  14453-3 0  9991
2 69083  88.9935 334.1475 0002270 106.7811 253.3590 13.51027806 14760
QIANFAN_5_1
1 69389U 26124H   26238.88935961  .00000080  00000+0  10495-3 0  9999
2 69389  89.0066 354.4639 0001540  98.1726 261.9600 13.51024675 11609
QIANFAN_5_2
1 69384U 26124C   26238.94696808  .00000097  00000+0  13136-3 0  9998
2 69384  89.0055 354.5062 0001998 107.7799 252.3571 13.51026616 11582
QIANFAN_5_3
1 69383U 26124B   26238.86875108  .00000100  00000+0  13595-3 0  9994
2 69383  89.0082 354.5020 0001969  96.3395 263.7981 13.51017406 11586
QIANFAN_5_4
1 69382U 26124A   26238.93865572  .00000083  00000+0  10961-3 0  9999
2 69382  89.0063 354.4886 0001447 102.4227 257.7087 13.51017009 11597
QIANFAN_5_5
1 69397U 26124R   26238.93443609  .00000089  00000+0  11913-3 0  9992
2 69397  89.0043 354.4270 0011105 328.0198  32.0278 13.51008033 11620
QIANFAN_5_6
1 69396U 26124Q   26238.93047788  .00000010  00000+0 -35157-5 0  9992
2 69396  89.0035 354.4081 0002021  97.0880 263.0501 13.51016268 11633
QIANFAN_5_7
1 69395U 26124P   26238.92219086  .00000011  00000+0 -17163-5 0  9990
2 69395  89.0004 354.3985 0002037  95.9675 264.1708 13.51021211 11631
QIANFAN_5_8
1 69393U 26124M   26238.91806428  .00000079  00000+0  10434-3 0  9994
2 69393  89.0048 354.4439 0002024  96.1628 263.9754 13.51016389 11604
QIANFAN_5_9
1 69392U 26124L   26238.91395487  .00000088  00000+0  11747-3 0  9999
2 69392  89.0087 354.4550 0002021  95.6308 264.5074 13.51015519 11613
QIANFAN_5_10
1 69391U 26124K   26238.90988831  .00000025  00000+0  20481-4 0  9995
2 69391  89.0035 354.4231 0001952 109.2625 250.8737 13.51025303 11613
QIANFAN_5_11
1 69399U 26124T   26238.90576482  .00000092  00000+0  12452-3 0  9990
2 69399  89.0040 354.4946 0001965  96.5971 263.5404 13.51023419 11579
QIANFAN_5_12
1 69398U 26124S   26238.90165093  .00000022  00000+0  15902-4 0  9998
2 69398  89.0060 354.5178 0007727 299.2872  60.7507 13.50930235 11575
QIANFAN_5_13
1 69390U 26124J   26238.89750552  .00000016  00000+0  64301-5 0  9999
2 69390  89.0053 354.4618 0001959  91.2453 268.8923 13.51038179 11607
QIANFAN_5_14
1 69388U 26124G   26238.89348927  .00000017  00000+0  84466-5 0  9990
2 69388  89.0081 354.4692 0007644 330.0032  30.0679 13.49905466 11607
QIANFAN_6_1
1 62245U 24232J   26238.89254163  .00000073  00000+0  95033-4 0  9994
2 62245  89.0131  15.2549 0014450 163.5302 196.6322 13.51026604134053
QIANFAN_6_2
1 62248U 24232M   26238.88840284  .00000078  00000+0  10162-3 0  9995
2 62248  89.0126  15.3920 0015441 168.1599 191.9918 13.51025553133964
QIANFAN_6_3
1 62247U 24232L   26238.88425899  .00000067  00000+0  84993-4 0  9997
2 62247  89.0130  15.4698 0015001 168.7982 191.3506 13.51026513133936
QIANFAN_6_4
1 69112U 26108J   26238.88206568  .00000069  00000+0  89079-4 0  9991
2 69112  89.0153  14.9409 0002074 106.4451 253.6928 13.51021314 13996
QIANFAN_6_5
1 69109U 26108F   26238.87795616  .00000051  00000+0  60700-4 0  9994
2 69109  89.0161  14.9475 0001976 110.3446 249.7918 13.51020984 13999
QIANFAN_6_6
1 62253U 24232S   26238.87607311  .00000066  00000+0  83189-4 0  9999
2 62253  89.0125  15.2794 0016101 163.1322 197.0368 13.51027424102668
QIANFAN_6_7
1 69106U 26108C   26238.87401293  .00000056  00000+0  67718-4 0  9997
2 69106  89.0162  14.9830 0002041 102.4404 257.6976 13.51021427 13975
QIANFAN_6_8
1 69108U 26108E   26238.86974755  .00000068  00000+0  87060-4 0  9991
2 69108  89.0156  14.9963 0001940 110.3464 249.7895 13.51020363 13978
QIANFAN_6_9
1 62239U 24232C   26238.86782337  .00000068  00000+0  87297-4 0  9990
2 62239  89.0130  15.4274 0015231 165.5745 194.5844 13.51025402133941
QIANFAN_6_10
1 69104U 26108A   26238.86576275  .00000062  00000+0  77997-4 0  9994
2 69104  89.0160  14.9799 0001915 101.2365 258.9002 13.51086512 13988
QIANFAN_6_11
1 62251U 24232Q   26238.86369430  .00000072  00000+0  92067-4 0  9995
2 62251  89.0135  15.4390 0016489 167.2429 192.9143 13.51026487102587
QIANFAN_6_12
1 69107U 26108D   26238.86159374  .00000073  00000+0  94048-4 0  9992
2 69107  89.0156  14.9758 0001797 102.3314 257.8038 13.51020865 13970
QIANFAN_6_13
1 62246U 24232K   26238.93368172  .00000071  00000+0  91119-4 0  9995
2 62246  89.0134  15.4064 0015122 163.3804 196.7846 13.51025427133988
QIANFAN_6_14
1 69120U 26108S   26238.93159234  .00000075  00000+0  97465-4 0  9998
2 69120  89.0172  14.8709 0001907  96.3660 263.7709 13.51035170 14053
QIANFAN_6_15
1 62254U 24232T   26238.92958123  .00000067  00000+0  85581-4 0  9995
2 62254  89.0133  15.3980 0014959 163.5334 196.6307 13.51024440102632
QIANFAN_6_16
1 69119U 26108R   26238.92746188  .00000074  00000+0  95879-4 0  9991
2 69119  89.0165  14.9564 0002078 111.3935 248.7439 13.51020106 14007
QIANFAN_6_17
1 62249U 24232N   26238.92542094  .00000082  00000+0  10778-3 0  9997
2 62249  89.0130  15.4002 0017622 171.4371 188.7084 13.51019826133975
QIANFAN_6_18
1 69121U 26108T   26238.92324395  .00000072  00000+0  93318-4 0  9990
2 69121  89.0162  14.8996 0002194 102.0595 258.0802 13.51040215 14026
QIANFAN_6_19
1 62252U 24232R   26238.92132303  .00000071  00000+0  90532-4 0  9994
2 62252  89.0129  15.4113 0013851 169.5818 190.5623 13.51025610102585
QIANFAN_6_20
1 69117U 26108P   26238.91917915  .00000062  00000+0  76785-4 0  9998
2 69117  89.0158  14.9150 0001876  97.2635 262.8729 13.51031854 14025
QIANFAN_6_21
1 62238U 24232B   26238.91717210  .00000061  00000+0  75752-4 0  9999
2 62238  89.0123  15.4892 0002511  93.5007 266.6431 13.51026951133893
QIANFAN_6_22
1 69115U 26108M   26238.91500951  .00000064  00000+0  80273-4 0  9993
2 69115  89.0175  14.9467 0001828  99.0974 261.0384 13.51033625 14011
QIANFAN_6_23
1 62250U 24232P   26238.91311935  .00000059  00000+0  73344-4 0  9999
2 62250  89.0129  15.4119 0014881 165.1214 195.0378 13.51027068102569
QIANFAN_6_24
1 69118U 26108Q   26238.91086673  .00000009  00000+0 -44969-5 0  9999
2 69118  89.0150  14.9243 0001962  97.6369 262.5005 13.51019903 14019
QIANFAN_6_25
1 62242U 24232F   26238.83491128  .00000061  00000+0  75187-4 0  9994
2 62242  89.0128  15.3774 0014760 161.6684 198.5003 13.51026682133965
QIANFAN_6_26
1 69110U 26108G   26238.90693136  .00000063  00000+0  79530-4 0  9998
2 69110  89.0160  14.9684 0001955  95.2102 264.9272 13.51016167 13988
QIANFAN_6_27
1 62244U 24232H   26238.90485092  .00000057  00000+0  69474-4 0  9994
2 62244  89.0132  15.4471 0016132 167.0855 193.0713 13.51026294102583
QIANFAN_6_28
1 69116U 26108N   26238.90279548  .00000016  00000+0  63224-5 0  9993
2 69116  89.0156  14.8757 0005305 258.7715 101.2840 13.51008718 14043
QIANFAN_6_29
1 62241U 24232E   26238.90074590  .00000089  00000+0  11871-3 0  9990
2 62241  89.0158  15.0804 0014046 172.4341 187.7025 13.51025670134315
QIANFAN_6_30
1 62255U 24232U   26238.89665302  .00000072  00000+0  93664-4 0  9993
2 62255  89.0124  15.0571 0002226 161.0382 199.0852 13.51026182134133
QIANFAN_6_31
1 69114U 26108L   26238.89442757  .00000073  00000+0  95261-4 0  9991
2 69114  89.0161  14.9511 0002037 108.4328 251.7045 13.51034245 13991
QIANFAN_7_1
1 66040U 25233H   26238.89161571  .00000031  00000+0  29738-4 0  9996
2 66040  89.0006  35.7584 0001567  87.6863 272.4468 13.51017915 42877
QIANFAN_7_2
1 66042U 25233K   26238.88744223  .00000029  00000+0  26963-4 0  9992
2 66042  89.0029  35.9751 0002152  91.7083 268.4315 13.51017767 42784
QIANFAN_7_3
1 66039U 25233G   26238.88339842  .00000045  00000+0  51123-4 0  9999
2 66039  89.0017  36.0361 0002152  90.7676 269.3722 13.51018545 42735
QIANFAN_7_4
1 66035U 25233C   26238.87922955  .00000041  00000+0  44276-4 0  9994
2 66035  89.0023  36.0658 0002147  92.1421 267.9976 13.51019114 42722
QIANFAN_7_5
1 66037U 25233E   26238.87515057  .00000053  00000+0  63060-4 0  9992
2 66037  89.0017  35.5089 0002094  87.6695 272.4696 13.51019598 43022
QIANFAN_7_6
1 66034U 25233B   26238.72294596  .00000060  00000+0  73558-4 0  9996
2 66034  88.9995  36.0106 0002053  95.3968 264.7417 13.51027051 42704
QIANFAN_7_7
1 66036U 25233D   26238.86693607  .00000048  00000+0  56161-4 0  9996
2 66036  89.0020  35.9678 0001977  92.2919 267.8459 13.51018788 42779
QIANFAN_7_8
1 66033U 25233A   26238.86283927  .00000055  00000+0  65823-4 0  9996
2 66033  89.0010  36.0362 0002153  90.1761 269.9637 13.51026837 42726
QIANFAN_7_9
1 66050U 25233T   26238.85868958  .00000036  00000+0  36512-4 0  9999
2 66050  89.0014  36.0231 0001696  89.8916 270.2430 13.51018943 42738
QIANFAN_7_10
1 66049U 25233S   26238.70649241  .00000030  00000+0  28432-4 0  9999
2 66049  89.0019  36.0557 0002137  91.6552 268.4844 13.51026730 42719
QIANFAN_7_11
1 66047U 25233Q   26238.48015586  .00000043  00000+0  48257-4 0  9992
2 66047  89.0035  35.8439 0002074  88.2217 271.9172 13.51023788 42837
QIANFAN_7_12
1 66048U 25233R   26238.69826121  .00000038  00000+0  40414-4 0  9992
2 66048  89.0004  36.0129 0001688  87.6328 272.5016 13.51027588 42701
QIANFAN_7_13
1 66046U 25233P   26238.69407381  .00000041  00000+0  45620-4 0  9991
2 66046  89.0023  35.9701 0001940  93.3371 266.8003 13.51024004 42754
QIANFAN_7_14
1 66045U 25233N   26238.46779614  .00000047  00000+0  54002-4 0  9996
2 66045  89.0016  36.0875 0002181  91.5962 268.5439 13.51018816 42670
QIANFAN_7_15
1 66044U 25233M   26238.90808826  .00000043  00000+0  47455-4 0  9992
2 66044  89.0015  35.9460 0001965  90.9040 269.2336 13.51017978 42789
QIANFAN_7_16
1 66038U 25233F   26238.82581451  .00000022  00000+0  15518-4 0  9990
2 66038  89.0013  36.0555 0002200  88.6104 271.5299 13.51026275 42712
QIANFAN_7_17
1 66041U 25233J   26238.67352587  .00000031  00000+0  28726-4 0  9998
2 66041  89.0017  36.0617 0001774  86.0180 274.1174 13.51018088 42703
QIANFAN_8_1
1 62792U 25016H   26238.96377696  .00000059  00000+0  72217-4 0  9990
2 62792  88.9660  76.3967 0015045 326.2609  33.7584 13.51018420 81965
QIANFAN_8_2
1 62791U 25016G   26238.95967568  .00000057  00000+0  69427-4 0  9998
2 62791  88.9713  76.6670 0013703 326.6485  33.3802 13.51025920 81975
QIANFAN_8_3
1 62794U 25016K   26238.95558518  .00000066  00000+0  83809-4 0  9992
2 62794  88.9654  76.3061 0012994 325.4134  34.6170 13.51025925 81991
QIANFAN_8_4
1 62795U 25016L   26238.95130185  .00000063  00000+0  78751-4 0  9996
2 62795  88.9650  76.3233 0012902 327.3291  32.7061 13.51022082 81970
QIANFAN_8_5
1 62802U 25016T   26238.94733799  .00000067  00000+0  85467-4 0  9990
2 62802  88.9647  76.3581 0018334 338.4124  21.6252 13.51019125 81955
QIANFAN_8_6
1 62788U 25016D   26238.94321981  .00000067  00000+0  85376-4 0  9998
2 62788  88.9642  76.2748 0012839 327.4291  32.6067 13.51018659 81973
QIANFAN_8_7
1 62786U 25016B   26238.93906267  .00000068  00000+0  87364-4 0  9991
2 62786  88.9641  76.2883 0015157 334.4301  25.6099 13.51026543 81963
QIANFAN_8_8
1 62800U 25016R   26238.93496306  .00000064  00000+0  80463-4 0  9995
2 62800  88.9662  76.4071 0014138 318.2301  41.7770 13.51021896 81963
QIANFAN_8_9
1 62801U 25016S   26238.93086357  .00000057  00000+0  69637-4 0  9999
2 62801  88.9657  76.3715 0014853 332.2079  27.8277 13.51025368 81969
QIANFAN_8_10
1 62790U 25016F   26238.92672234  .00000060  00000+0  74354-4 0  9996
2 62790  88.9646  76.3333 0014746 326.7788  33.2436 13.51026192 81959
QIANFAN_8_11
1 62785U 25016A   26238.92271697  .00000043  00000+0  48606-4 0  9990
2 62785  88.9668  76.5223 0016486 331.1045  28.9192 13.51023446 81911
QIANFAN_8_12
1 62799U 25016Q   26238.91838923  .00000061  00000+0  76214-4 0  9991
2 62799  88.9642  76.2168 0014827 328.4305  31.5955 13.51022891 82009
QIANFAN_8_13
1 62793U 25016J   26238.91439087  .00000065  00000+0  82711-4 0  9996
2 62793  88.9667  76.3708 0015274 332.0653  27.9676 13.51021531 81991
QIANFAN_8_14
1 62797U 25016N   26238.91024360  .00000069  00000+0  88361-4 0  9995
2 62797  88.9660  76.3486 0014043 329.6031  30.4305 13.51027593 81987
QIANFAN_8_15
1 62796U 25016M   26238.90608509  .00000061  00000+0  75898-4 0  9999
2 62796  88.9670  76.3487 0013866 322.2305  37.7872 13.51027808 82016
QIANFAN_8_16
1 62798U 25016P   26238.90198925  .00000060  00000+0  74281-4 0  9991
2 62798  88.9663  76.4038 0014052 327.3242  32.7039 13.51020345 81969
QIANFAN_8_17
1 62787U 25016C   26238.89806223  .00000038  00000+0  40540-4 0  9990
2 62787  88.9672  76.5262 0002480  95.4174 264.7260 13.51026199 81928
QIANFAN_8_18
1 62789U 25016E   26238.89374414  .00000048  00000+0  56389-4 0  9993
2 62789  88.9665  76.4142 0013325 331.4000  28.6419 13.51022914 81967
