GW2_1_1
1 93001U 26001A   26093.00000000  .00000000  00000-0  00000-0 0  9992
2 93001  86.5000   0.0000 0000000   0.0000   0.0000 13.22550000    13
GW2_1_2
1 93002U 26001B   26093.00000000  .00000000  00000-0  00000-0 0  9993
2 93002  86.5000   0.0000 0000000   0.0000  18.0000 13.22550000    24
GW2_1_3
1 93003U 26001C   26093.00000000  .00000000  00000-0  00000-0 0  9994
2 93003  86.5000   0.0000 0000000   0.0000  36.0000 13.22550000    36
GW2_1_4
1 93004U 26001D   26093.00000000  .00000000  00000-0  00000-0 0  9995
2 93004  86.5000   0.0000 0000000   0.0000  54.0000 13.22550000    48
GW2_1_5
1 93005U 26001E   26093.00000000  .00000000  00000-0  00000-0 0  9996
2 93005  86.5000   0.0000 0000000   0.0000  72.0000 13.22550000    50
GW2_1_6
1 93006U 26001F   26093.00000000  .00000000  00000-0  00000-0 0  9997
2 93006  86.5000   0.0000 0000000   0.0000  90.0000 13.22550000    62
GW2_1_7
1 93007U 26001G   26093.00000000  .00000000  00000-0  00000-0 0  9998
2 93007  86.5000   0.0000 0000000   0.0000 108.0000 13.22550000    74
GW2_1_8
1 93008U 26001H   26093.00000000  .00000000  00000-0  00000-0 0  9999
2 93008  86.5000   0.0000 0000000   0.0000 126.0000 13.22550000    86
GW2_1_9
1 93009U 26001I   26093.00000000  .00000000  00000-0  00000-0 0  9990
2 93009  86.5000   0.0000 0000000   0.0000 144.0000 13.22550000    98
GW2_1_10
1 93010U 26001J   26093.00000000  .00000000  00000-0  00000-0 0  9992
2 93010  86.5000   0.0000 0000000   0.0000 162.0000 13.22550000   102
GW2_1_11
1 93011U 26001K   26093.00000000  .00000000  00000-0  00000-0 0  9993
2 93011  86.5000   0.0000 0000000   0.0000 180.0000 13.22550000   114
GW2_1_12
1 93012U 26001L   26093.00000000  .00000000  00000-0  00000-0 0  9994
2 93012  86.5000   0.0000 0000000   0.0000 198.0000 13.22550000   125
GW2_1_13
1 93013U 26001M   26093.00000000  .00000000  00000-0  00000-0 0  9995
2 93013  86.5000   0.0000 0000000   0.0000 216.0000 13.22550000   138
GW2_1_14
1 93014U 26001N   26093.00000000  .00000000  00000-0  00000-0 0  9996
2 93014  86.5000   0.0000 0000000   0.0000 234.0000 13.22550000   140
GW2_1_15
1 93015U 26001O   26093.00000000  .00000000  00000-0  00000-0 0  9997
2 93015  86.5000   0.0000 0000000   0.0000 252.0000 13.22550000   152
GW2_1_16
1 93016U 26001P   26093.00000000  .00000000  00000-0  00000-0 0  9998
2 93016  86.5000   0.0000 0000000   0.0000 270.0000 13.22550000   164
GW2_1_17
1 93017U 26001Q   26093.00000000  .00000000  00000-0  00000-0 0  9999
2 93017  86.5000   0.0000 0000000   0.0000 288.0000 13.22550000   175
GW2_1_18
1 93018U 26001R   26093.00000000  .00000000  00000-0  00000-0 0  9990
2 93018  86.5000   0.0000 0000000   0.0000 306.0000 13.22550000   188
GW2_1_19
1 93019U 26001S   26093.00000000  .00000000  00000-0  00000-0 0  9991
2 93019  86.5000   0.0000 0000000   0.0000 324.0000 13.22550000   190
GW2_1_20
1 93020U 26001T   26093.00000000  .00000000  00000-0  00000-0 0  9993
2 93020  86.5000   0.0000 0000000   0.0000 342.0000 13.22550000   204
GW2_2_1
1 93021U 26001U   26093.00000000  .00000000  00000-0  00000-0 0  9994
2 93021  86.5000   9.0000 0000000   0.0000   0.5000 13.22550000   211
GW2_2_2
1 93022U 26001V   26093.00000000  .00000000  00000-0  00000-0 0  9995
2 93022  86.5000   9.0000 0000000   0.0000  18.5000 13.22550000   222
GW2_2_3
1 93023U 26001W   26093.00000000  .00000000  00000-0  00000-0 0  9996
2 93023  86.5000   9.0000 0000000   0.0000  36.5000 13.22550000   234
GW2_2_4
1 93024U 26001X   26093.00000000  .00000000  00000-0  00000-0 0  9997
2 93024  86.5000   9.0000 0000000   0.0000  54.5000 13.22550000   246
GW2_2_5
1 93025U 26001Y   26093.00000000  .00000000  00000-0  00000-0 0  9998
2 93025  86.5000   9.0000 0000000   0.0000  72.5000 13.22550000   258
GW2_2_6
1 93026U 26001Z   26093.00000000  .00000000  00000-0  00000-0 0  9999
2 93026  86.5000   9.0000 0000000   0.0000  90.5000 13.22550000   260
GW2_2_7
1 93027U 26001AA  26093.00000000  .00000000  00000-0  00000-0 0  9990
2 93027  86.5000   9.0000 0000000   0.0000 108.5000 13.22550000   272
GW2_2_8
1 93028U 26001AB  26093.00000000  .00000000  00000-0  00000-0 0  9991
2 93028  86.5000   9.0000 0000000   0.0000 126.5000 13.22550000   284
GW2_2_9
1 93029U 26001AC  26093.00000000  .00000000  00000-0  00000-0 0  9992
2 93029  86.5000   9.0000 0000000   0.0000 144.5000 13.22550000   296
GW2_2_10
1 93030U 26001AD  26093.00000000  .00000000  00000-0  00000-0 0  9994
2 93030  86.5000   9.0000 0000000   0.0000 162.5000 13.22550000   300
GW2_2_11
1 93031U 26001AE  26093.00000000  .00000000  00000-0  00000-0 0  9995
2 93031  86.5000   9.0000 0000000   0.0000 180.5000 13.22550000   312
GW2_2_12
1 93032U 26001AF  26093.00000000  .00000000  00000-0  00000-0 0  9996
2 93032  86.5000   9.0000 0000000   0.0000 198.5000 13.22550000   323
GW2_2_13
1 93033U 26001AG  26093.00000000  .00000000  00000-0  00000-0 0  9997
2 93033  86.5000   9.0000 0000000   0.0000 216.5000 13.22550000   336
GW2_2_14
1 93034U 26001AH  26093.00000000  .00000000  00000-0  00000-0 0  9998
2 93034  86.5000   9.0000 0000000   0.0000 234.5000 13.22550000   348
GW2_2_15
1 93035U 26001AI  26093.00000000  .00000000  00000-0  00000-0 0  9999
2 93035  86.5000   9.0000 0000000   0.0000 252.5000 13.22550000   350
GW2_2_16
1 93036U 26001AJ  26093.00000000  .00000000  00000-0  00000-0 0  9990
2 93036  86.5000   9.0000 0000000   0.0000 270.5000 13.22550000   362
GW2_2_17
1 93037U 26001AK  26093.00000000  .00000000  00000-0  00000-0 0  9991
2 93037  86.5000   9.0000 0000000   0.0000 288.5000 13.22550000   373
GW2_2_18
1 93038U 26001AL  26093.00000000  .00000000  00000-0  00000-0 0  9992
2 93038  86.5000   9.0000 0000000   0.0000 306.5000 13.22550000   386
GW2_2_19
1 93039U 26001AM  26093.00000000  .00000000  00000-0  00000-0 0  9993
2 93039  86.5000   9.0000 0000000   0.0000 324.5000 13.22550000   398
GW2_2_20
1 93040U 26001AN  26093.00000000  .00000000  00000-0  00000-0 0  9995
2 93040  86.5000   9.0000 0000000   0.0000 342.5000 13.22550000   402
GW2_3_1
1 93041U 26001AO  26093.00000000  .00000000  00000-0  00000-0 0  9996
2 93041  86.5000  18.0000 0000000   0.0000   1.0000 13.22550000   411
GW2_3_2
1 93042U 26001AP  26093.00000000  .00000000  00000-0  00000-0 0  9997
2 93042  86.5000  18.0000 0000000   0.0000  19.0000 13.22550000   422
GW2_3_3
1 93043U 26001AQ  26093.00000000  .00000000  00000-0  00000-0 0  9998
2 93043  86.5000  18.0000 0000000   0.0000  37.0000 13.22550000   434
GW2_3_4
1 93044U 26001AR  26093.00000000  .00000000  00000-0  00000-0 0  9999
2 93044  86.5000  18.0000 0000000   0.0000  55.0000 13.22550000   446
GW2_3_5
1 93045U 26001AS  26093.00000000  .00000000  00000-0  00000-0 0  9990
2 93045  86.5000  18.0000 0000000   0.0000  73.0000 13.22550000   458
GW2_3_6
1 93046U 26001AT  26093.00000000  .00000000  00000-0  00000-0 0  9991
2 93046  86.5000  18.0000 0000000   0.0000  91.0000 13.22550000   460
GW2_3_7
1 93047U 26001AU  26093.00000000  .00000000  00000-0  00000-0 0  9992
2 93047  86.5000  18.0000 0000000   0.0000 109.0000 13.22550000   472
GW2_3_8
1 93048U 26001AV  26093.00000000  .00000000  00000-0  00000-0 0  9993
2 93048  86.5000  18.0000 0000000   0.0000 127.0000 13.22550000   484
GW2_3_9
1 93049U 26001AW  26093.00000000  .00000000  00000-0  00000-0 0  9994
2 93049  86.5000  18.0000 0000000   0.0000 145.0000 13.22550000   496
GW2_3_10
1 93050U 26001AX  26093.00000000  .00000000  00000-0  00000-0 0  9996
2 93050  86.5000  18.0000 0000000   0.0000 163.0000 13.22550000   500
GW2_3_11
1 93051U 26001AY  26093.00000000  .00000000  00000-0  00000-0 0  9997
2 93051  86.5000  18.0000 0000000   0.0000 181.0000 13.22550000   512
GW2_3_12
1 93052U 26001AZ  26093.00000000  .00000000  00000-0  00000-0 0  9998
2 93052  86.5000  18.0000 0000000   0.0000 199.0000 13.22550000   523
GW2_3_13
1 93053U 26001BA  26093.00000000  .00000000  00000-0  00000-0 0  9999
2 93053  86.5000  18.0000 0000000   0.0000 217.0000 13.22550000   536
GW2_3_14
1 93054U 26001BB  26093.00000000  .00000000  00000-0  00000-0 0  9990
2 93054  86.5000  18.0000 0000000   0.0000 235.0000 13.22550000   548
GW2_3_15
1 93055U 26001BC  26093.00000000  .00000000  00000-0  00000-0 0  9991
2 93055  86.5000  18.0000 0000000   0.0000 253.0000 13.22550000   550
GW2_3_16
1 93056U 26001BD  26093.00000000  .00000000  00000-0  00000-0 0  9992
2 93056  86.5000  18.0000 0000000   0.0000 271.0000 13.22550000   562
GW2_3_17
1 93057U 26001BE  26093.00000000  .00000000  00000-0  00000-0 0  9993
2 93057  86.5000  18.0000 0000000   0.0000 289.0000 13.22550000   573
GW2_3_18
1 93058U 26001BF  26093.00000000  .00000000  00000-0  00000-0 0  9994
2 93058  86.5000  18.0000 0000000   0.0000 307.0000 13.22550000   586
GW2_3_19
1 93059U 26001BG  26093.00000000  .00000000  00000-0  00000-0 0  9995
2 93059  86.5000  18.0000 0000000   0.0000 325.0000 13.22550000   598
GW2_3_20
1 93060U 26001BH  26093.00000000  .00000000  00000-0  00000-0 0  9997
2 93060  86.5000  18.0000 0000000   0.0000 343.0000 13.22550000   602
GW2_4_1
1 93061U 26001BI  26093.00000000  .00000000  00000-0  00000-0 0  9998
2 93061  86.5000  27.0000 0000000   0.0000   1.5000 13.22550000   610
GW2_4_2
1 93062U 26001BJ  26093.00000000  .00000000  00000-0  00000-0 0  9999
2 93062  86.5000  27.0000 0000000   0.0000  19.5000 13.22550000   621
GW2_4_3
1 93063U 26001BK  26093.00000000  .00000000  00000-0  00000-0 0  9990
2 93063  86.5000  27.0000 0000000   0.0000  37.5000 13.22550000   633
GW2_4_4
1 93064U 26001BL  26093.00000000  .00000000  00000-0  00000-0 0  9991
2 93064  86.5000  27.0000 0000000   0.0000  55.5000 13.22550000   645
GW2_4_5
1 93065U 26001BM  26093.00000000  .00000000  00000-0  00000-0 0  9992
2 93065  86.5000  27.0000 0000000   0.0000  73.5000 13.22550000   657
GW2_4_6
1 93066U 26001BN  26093.00000000  .00000000  00000-0  00000-0 0  9993
2 93066  86.5000  27.0000 0000000   0.0000  91.5000 13.22550000   669
GW2_4_7
1 93067U 26001BO  26093.00000000  .00000000  00000-0  00000-0 0  9994
2 93067  86.5000  27.0000 0000000   0.0000 109.5000 13.22550000   671
GW2_4_8
1 93068U 26001BP  26093.00000000  .00000000  00000-0  00000-0 0  9995
2 93068  86.5000  27.0000 0000000   0.0000 127.5000 13.22550000   683
GW2_4_9
1 93069U 26001BQ  26093.00000000  .00000000  00000-0  00000-0 0  9996
2 93069  86.5000  27.0000 0000000   0.0000 145.5000 13.22550000   695
GW2_4_10
1 93070U 26001BR  26093.00000000  .00000000  00000-0  00000-0 0  9998
2 93070  86.5000  27.0000 0000000   0.0000 163.5000 13.22550000   709
GW2_4_11
1 93071U 26001BS  26093.00000000  .00000000  00000-0  00000-0 0  9999
2 93071  86.5000  27.0000 0000000   0.0000 181.5000 13.22550000   711
GW2_4_12
1 93072U 26001BT  26093.00000000  .00000000  00000-0  00000-0 0  9990
2 93072  86.5000  27.0000 0000000   0.0000 199.5000 13.22550000   722
GW2_4_13
1 93073U 26001BU  26093.00000000  .00000000  00000-0  00000-0 0  9991
2 93073  86.5000  27.0000 0000000   0.0000 217.5000 13.22550000   735
GW2_4_14
1 93074U 26001BV  26093.00000000  .00000000  00000-0  00000-0 0  9992
2 93074  86.5000  27.0000 0000000   0.0000 235.5000 13.22550000   747
GW2_4_15
1 93075U 26001BW  26093.00000000  .00000000  00000-0  00000-0 0  9993
2 93075  86.5000  27.0000 0000000   0.0000 253.5000 13.22550000   759
GW2_4_16
1 93076U 26001BX  26093.00000000  .00000000  00000-0  00000-0 0  9994
2 93076  86.5000  27.0000 0000000   0.0000 271.5000 13.22550000   761
GW2_4_17
1 93077U 26001BY  26093.00000000  .00000000  00000-0  00000-0 0  9995
2 93077  86.5000  27.0000 0000000   0.0000 289.5000 13.22550000   772
GW2_4_18
1 93078U 26001BZ  26093.00000000  .00000000  00000-0  00000-0 0  9996
2 93078  86.5000  27.0000 0000000   0.0000 307.5000 13.22550000   785
GW2_4_19
1 93079U 26001CA  26093.00000000  .00000000  00000-0  00000-0 0  9997
2 93079  86.5000  27.0000 0000000   0.0000 325.5000 13.22550000   797
GW2_4_20
1 93080U 26001CB  26093.00000000  .00000000  00000-0  00000-0 0  9999
2 93080  86.5000  27.0000 0000000   0.0000 343.5000 13.22550000   801
GW2_5_1
1 93081U 26001CC  26093.00000000  .00000000  00000-0  00000-0 0  9990
2 93081  86.5000  36.0000 0000000   0.0000   2.0000 13.22550000   810
GW2_5_2
1 93082U 26001CD  26093.00000000  .00000000  00000-0  00000-0 0  9991
2 93082  86.5000  36.0000 0000000   0.0000  20.0000 13.22550000   822
GW2_5_3
1 93083U 26001CE  26093.00000000  .00000000  00000-0  00000-0 0  9992
2 93083  86.5000  36.0000 0000000   0.0000  38.0000 13.22550000   833
GW2_5_4
1 93084U 26001CF  26093.00000000  .00000000  00000-0  00000-0 0  9993
2 93084  86.5000  36.0000 0000000   0.0000  56.0000 13.22550000   845
GW2_5_5
1 93085U 26001CG  26093.00000000  .00000000  00000-0  00000-0 0  9994
2 93085  86.5000  36.0000 0000000   0.0000  74.0000 13.22550000   857
GW2_5_6
1 93086U 26001CH  26093.00000000  .00000000  00000-0  00000-0 0  9995
2 93086  86.5000  36.0000 0000000   0.0000  92.0000 13.22550000   869
GW2_5_7
1 93087U 26001CI  26093.00000000  .00000000  00000-0  00000-0 0  9996
2 93087  86.5000  36.0000 0000000   0.0000 110.0000 13.22550000   872
GW2_5_8
1 93088U 26001CJ  26093.00000000  .00000000  00000-0  00000-0 0  9997
2 93088  86.5000  36.0000 0000000   0.0000 128.0000 13.22550000   883
GW2_5_9
1 93089U 26001CK  26093.00000000  .00000000  00000-0  00000-0 0  9998
2 93089  86.5000  36.0000 0000000   0.0000 146.0000 13.22550000   895
GW2_5_10
1 93090U 26001CL  26093.00000000  .00000000  00000-0  00000-0 0  9990
2 93090  86.5000  36.0000 0000000   0.0000 164.0000 13.22550000   909
GW2_5_11
1 93091U 26001CM  26093.00000000  .00000000  00000-0  00000-0 0  9991
2 93091  86.5000  36.0000 0000000   0.0000 182.0000 13.22550000   911
GW2_5_12
1 93092U 26001CN  26093.00000000  .00000000  00000-0  00000-0 0  9992
2 93092  86.5000  36.0000 0000000   0.0000 200.0000 13.22550000   924
GW2_5_13
1 93093U 26001CO  26093.00000000  .00000000  00000-0  00000-0 0  9993
2 93093  86.5000  36.0000 0000000   0.0000 218.0000 13.22550000   935
GW2_5_14
1 93094U 26001CP  26093.00000000  .00000000  00000-0  00000-0 0  9994
2 93094  86.5000  36.0000 0000000   0.0000 236.0000 13.22550000   947
GW2_5_15
1 93095U 26001CQ  26093.00000000  .00000000  00000-0  00000-0 0  9995
2 93095  86.5000  36.0000 0000000   0.0000 254.0000 13.22550000   959
GW2_5_16
1 93096U 26001CR  26093.00000000  .00000000  00000-0  00000-0 0  9996
2 93096  86.5000  36.0000 0000000   0.0000 272.0000 13.22550000   961
GW2_5_17
1 93097U 26001CS  26093.00000000  .00000000  00000-0  00000-0 0  9997
2 93097  86.5000  36.0000 0000000   0.0000 290.0000 13.22550000   973
GW2_5_18
1 93098U 26001CT  26093.00000000  .00000000  00000-0  00000-0 0  9998
2 93098  86.5000  36.0000 0000000   0.0000 308.0000 13.22550000   985
GW2_5_19
1 93099U 26001CU  26093.00000000  .00000000  00000-0  00000-0 0  9999
2 93099  86.5000  36.0000 0000000   0.0000 326.0000 13.22550000   997
GW2_5_20
1 93100U 26001CV  26093.00000000  .00000000  00000-0  00000-0 0  9992
2 93100  86.5000  36.0000 0000000   0.0000 344.0000 13.22550000  1003
GW2_6_1
1 93101U 26001CW  26093.00000000  .00000000  00000-0  00000-0 0  9993
2 93101  86.5000  45.0000 0000000   0.0000   2.5000 13.22550000  1011
GW2_6_2
1 93102U 26001CX  26093.00000000  .00000000  00000-0  00000-0 0  9994
2 93102  86.5000  45.0000 0000000   0.0000  20.5000 13.22550000  1023
GW2_6_3
1 93103U 26001CY  26093.00000000  .00000000  00000-0  00000-0 0  9995
2 93103  86.5000  45.0000 0000000   0.0000  38.5000 13.22550000  1034
GW2_6_4
1 93104U 26001CZ  26093.00000000  .00000000  00000-0  00000-0 0  9996
2 93104  86.5000  45.0000 0000000   0.0000  56.5000 13.22550000  1046
GW2_6_5
1 93105U 26001DA  26093.00000000  .00000000  00000-0  00000-0 0  9997
2 93105  86.5000  45.0000 0000000   0.0000  74.5000 13.22550000  1058
GW2_6_6
1 93106U 26001DB  26093.00000000  .00000000  00000-0  00000-0 0  9998
2 93106  86.5000  45.0000 0000000   0.0000  92.5000 13.22550000  1060
GW2_6_7
1 93107U 26001DC  26093.00000000  .00000000  00000-0  00000-0 0  9999
2 93107  86.5000  45.0000 0000000   0.0000 110.5000 13.22550000  1073
GW2_6_8
1 93108U 26001DD  26093.00000000  .00000000  00000-0  00000-0 0  9990
2 93108  86.5000  45.0000 0000000   0.0000 128.5000 13.22550000  1084
GW2_6_9
1 93109U 26001DE  26093.00000000  .00000000  00000-0  00000-0 0  9991
2 93109  86.5000  45.0000 0000000   0.0000 146.5000 13.22550000  1096
GW2_6_10
1 93110U 26001DF  26093.00000000  .00000000  00000-0  00000-0 0  9993
2 93110  86.5000  45.0000 0000000   0.0000 164.5000 13.22550000  1100
GW2_6_11
1 93111U 26001DG  26093.00000000  .00000000  00000-0  00000-0 0  9994
2 93111  86.5000  45.0000 0000000   0.0000 182.5000 13.22550000  1112
GW2_6_12
1 93112U 26001DH  26093.00000000  .00000000  00000-0  00000-0 0  9995
2 93112  86.5000  45.0000 0000000   0.0000 200.5000 13.22550000  1125
GW2_6_13
1 93113U 26001DI  26093.00000000  .00000000  00000-0  00000-0 0  9996
2 93113  86.5000  45.0000 0000000   0.0000 218.5000 13.22550000  1136
GW2_6_14
1 93114U 26001DJ  26093.00000000  .00000000  00000-0  00000-0 0  9997
2 93114  86.5000  45.0000 0000000   0.0000 236.5000 13.22550000  1148
GW2_6_15
1 93115U 26001DK  26093.00000000  .00000000  00000-0  00000-0 0  9998
2 93115  86.5000  45.0000 0000000   0.0000 254.5000 13.22550000  1150
GW2_6_16
1 93116U 26001DL  26093.00000000  .00000000  00000-0  00000-0 0  9999
2 93116  86.5000  45.0000 0000000   0.0000 272.5000 13.22550000  1162
GW2_6_17
1 93117U 26001DM  26093.00000000  .00000000  00000-0  00000-0 0  9990
2 93117  86.5000  45.0000 0000000   0.0000 290.5000 13.22550000  1174
GW2_6_18
1 93118U 26001DN  26093.00000000  .00000000  00000-0  00000-0 0  9991
2 93118  86.5000  45.0000 0000000   0.0000 308.5000 13.22550000  1186
GW2_6_19
1 93119U 26001DO  26093.00000000  .00000000  00000-0  00000-0 0  9992
2 93119  86.5000  45.0000 0000000   0.0000 326.5000 13.22550000  1198
GW2_6_20
1 93120U 26001DP  26093.00000000  .00000000  00000-0  00000-0 0  9994
2 93120  86.5000  45.0000 0000000   0.0000 344.5000 13.22550000  1202
GW2_7_1
1 93121U 26001DQ  26093.00000000  .00000000  00000-0  00000-0 0  9995
2 93121  86.5000  54.0000 0000000   0.0000   3.0000 13.22550000  1211
GW2_7_2
1 93122U 26001DR  26093.00000000  .00000000  00000-0  00000-0 0  9996
2 93122  86.5000  54.0000 0000000   0.0000  21.0000 13.22550000  1223
GW2_7_3
1 93123U 26001DS  26093.00000000  .00000000  00000-0  00000-0 0  9997
2 93123  86.5000  54.0000 0000000   0.0000  39.0000 13.22550000  1234
GW2_7_4
1 93124U 26001DT  26093.00000000  .00000000  00000-0  00000-0 0  9998
2 93124  86.5000  54.0000 0000000   0.0000  57.0000 13.22550000  1246
GW2_7_5
1 93125U 26001DU  26093.00000000  .00000000  00000-0  00000-0 0  9999
2 93125  86.5000  54.0000 0000000   0.0000  75.0000 13.22550000  1258
GW2_7_6
1 93126U 26001DV  26093.00000000  .00000000  00000-0  00000-0 0  9990
2 93126  86.5000  54.0000 0000000   0.0000  93.0000 13.22550000  1260
GW2_7_7
1 93127U 26001DW  26093.00000000  .00000000  00000-0  00000-0 0  9991
2 93127  86.5000  54.0000 0000000   0.0000 111.0000 13.22550000  1273
GW2_7_8
1 93128U 26001DX  26093.00000000  .00000000  00000-0  00000-0 0  9992
2 93128  86.5000  54.0000 0000000   0.0000 129.0000 13.22550000  1284
GW2_7_9
1 93129U 26001DY  26093.00000000  .00000000  00000-0  00000-0 0  9993
2 93129  86.5000  54.0000 0000000   0.0000 147.0000 13.22550000  1296
GW2_7_10
1 93130U 26001DZ  26093.00000000  .00000000  00000-0  00000-0 0  9995
2 93130  86.5000  54.0000 0000000   0.0000 165.0000 13.22550000  1300
GW2_7_11
1 93131U 26001EA  26093.00000000  .00000000  00000-0  00000-0 0  9996
2 93131  86.5000  54.0000 0000000   0.0000 183.0000 13.22550000  1312
GW2_7_12
1 93132U 26001EB  26093.00000000  .00000000  00000-0  00000-0 0  9997
2 93132  86.5000  54.0000 0000000   0.0000 201.0000 13.22550000  1325
GW2_7_13
1 93133U 26001EC  26093.00000000  .00000000  00000-0  00000-0 0  9998
2 93133  86.5000  54.0000 0000000   0.0000 219.0000 13.22550000  1336
GW2_7_14
1 93134U 26001ED  26093.00000000  .00000000  00000-0  00000-0 0  9999
2 93134  86.5000  54.0000 0000000   0.0000 237.0000 13.22550000  1348
GW2_7_15
1 93135U 26001EE  26093.00000000  .00000000  00000-0  00000-0 0  9990
2 93135  86.5000  54.0000 0000000   0.0000 255.0000 13.22550000  1350
GW2_7_16
1 93136U 26001EF  26093.00000000  .00000000  00000-0  00000-0 0  9991
2 93136  86.5000  54.0000 0000000   0.0000 273.0000 13.22550000  1362
GW2_7_17
1 93137U 26001EG  26093.00000000  .00000000  00000-0  00000-0 0  9992
2 93137  86.5000  54.0000 0000000   0.0000 291.0000 13.22550000  1374
GW2_7_18
1 93138U 26001EH  26093.00000000  .00000000  00000-0  00000-0 0  9993
2 93138  86.5000  54.0000 0000000   0.0000 309.0000 13.22550000  1386
GW2_7_19
1 93139U 26001EI  26093.00000000  .00000000  00000-0  00000-0 0  9994
2 93139  86.5000  54.0000 0000000   0.0000 327.0000 13.22550000  1398
GW2_7_20
1 93140U 26001EJ  26093.00000000  .00000000  00000-0  00000-0 0  9996
2 93140  86.5000  54.0000 0000000   0.0000 345.0000 13.22550000  1402
GW2_8_1
1 93141U 26001EK  26093.00000000  .00000000  00000-0  00000-0 0  9997
2 93141  86.5000  63.0000 0000000   0.0000   3.5000 13.22550000  1410
GW2_8_2
1 93142U 26001EL  26093.00000000  .00000000  00000-0  00000-0 0  9998
2 93142  86.5000  63.0000 0000000   0.0000  21.5000 13.22550000  1422
GW2_8_3
1 93143U 26001EM  26093.00000000  .00000000  00000-0  00000-0 0  9999
2 93143  86.5000  63.0000 0000000   0.0000  39.5000 13.22550000  1433
GW2_8_4
1 93144U 26001EN  26093.00000000  .00000000  00000-0  00000-0 0  9990
2 93144  86.5000  63.0000 0000000   0.0000  57.5000 13.22550000  1445
GW2_8_5
1 93145U 26001EO  26093.00000000  .00000000  00000-0  00000-0 0  9991
2 93145  86.5000  63.0000 0000000   0.0000  75.5000 13.22550000  1457
GW2_8_6
1 93146U 26001EP  26093.00000000  .00000000  00000-0  00000-0 0  9992
2 93146  86.5000  63.0000 0000000   0.0000  93.5000 13.22550000  1469
GW2_8_7
1 93147U 26001EQ  26093.00000000  .00000000  00000-0  00000-0 0  9993
2 93147  86.5000  63.0000 0000000   0.0000 111.5000 13.22550000  1472
GW2_8_8
1 93148U 26001ER  26093.00000000  .00000000  00000-0  00000-0 0  9994
2 93148  86.5000  63.0000 0000000   0.0000 129.5000 13.22550000  1483
GW2_8_9
1 93149U 26001ES  26093.00000000  .00000000  00000-0  00000-0 0  9995
2 93149  86.5000  63.0000 0000000   0.0000 147.5000 13.22550000  1495
GW2_8_10
1 93150U 26001ET  26093.00000000  .00000000  00000-0  00000-0 0  9997
2 93150  86.5000  63.0000 0000000   0.0000 165.5000 13.22550000  1509
GW2_8_11
1 93151U 26001EU  26093.00000000  .00000000  00000-0  00000-0 0  9998
2 93151  86.5000  63.0000 0000000   0.0000 183.5000 13.22550000  1511
GW2_8_12
1 93152U 26001EV  26093.00000000  .00000000  00000-0  00000-0 0  9999
2 93152  86.5000  63.0000 0000000   0.0000 201.5000 13.22550000  1524
GW2_8_13
1 93153U 26001EW  26093.00000000  .00000000  00000-0  00000-0 0  9990
2 93153  86.5000  63.0000 0000000   0.0000 219.5000 13.22550000  1535
GW2_8_14
1 93154U 26001EX  26093.00000000  .00000000  00000-0  00000-0 0  9991
2 93154  86.5000  63.0000 0000000   0.0000 237.5000 13.22550000  1547
GW2_8_15
1 93155U 26001EY  26093.00000000  .00000000  00000-0  00000-0 0  9992
2 93155  86.5000  63.0000 0000000   0.0000 255.5000 13.22550000  1559
GW2_8_16
1 93156U 26001EZ  26093.00000000  .00000000  00000-0  00000-0 0  9993
2 93156  86.5000  63.0000 0000000   0.0000 273.5000 13.22550000  1561
GW2_8_17
1 93157U 26001FA  26093.00000000  .00000000  00000-0  00000-0 0  9994
2 93157  86.5000  63.0000 0000000   0.0000 291.5000 13.22550000  1573
GW2_8_18
1 93158U 26001FB  26093.00000000  .00000000  00000-0  00000-0 0  9995
2 93158  86.5000  63.0000 0000000   0.0000 309.5000 13.22550000  1585
GW2_8_19
1 93159U 26001FC  26093.00000000  .00000000  00000-0  00000-0 0  9996
2 93159  86.5000  63.0000 0000000   0.0000 327.5000 13.22550000  1597
GW2_8_20
1 93160U 26001FD  26093.00000000  .00000000  00000-0  00000-0 0  9998
2 93160  86.5000  63.0000 0000000   0.0000 345.5000 13.22550000  1601
GW2_9_1
1 93161U 26001FE  26093.00000000  .00000000  00000-0  00000-0 0  9999
2 93161  86.5000  72.0000 0000000   0.0000   4.0000 13.22550000  1610
GW2_9_2
1 93162U 26001FF  26093.00000000  .00000000  00000-0  00000-0 0  9990
2 93162  86.5000  72.0000 0000000   0.0000  22.0000 13.22550000  1622
GW2_9_3
1 93163U 26001FG  26093.00000000  .00000000  00000-0  00000-0 0  9991
2 93163  86.5000  72.0000 0000000   0.0000  40.0000 13.22550000  1634
GW2_9_4
1 93164U 26001FH  26093.00000000  .00000000  00000-0  00000-0 0  9992
2 93164  86.5000  72.0000 0000000   0.0000  58.0000 13.22550000  1645
GW2_9_5
1 93165U 26001FI  26093.00000000  .00000000  00000-0  00000-0 0  9993
2 93165  86.5000  72.0000 0000000   0.0000  76.0000 13.22550000  1657
GW2_9_6
1 93166U 26001FJ  26093.00000000  .00000000  00000-0  00000-0 0  9994
2 93166  86.5000  72.0000 0000000   0.0000  94.0000 13.22550000  1669
GW2_9_7
1 93167U 26001FK  26093.00000000  .00000000  00000-0  00000-0 0  9995
2 93167  86.5000  72.0000 0000000   0.0000 112.0000 13.22550000  1672
GW2_9_8
1 93168U 26001FL  26093.00000000  .00000000  00000-0  00000-0 0  9996
2 93168  86.5000  72.0000 0000000   0.0000 130.0000 13.22550000  1684
GW2_9_9
1 93169U 26001FM  26093.00000000  .00000000  00000-0  00000-0 0  9997
2 93169  86.5000  72.0000 0000000   0.0000 148.0000 13.22550000  1695
GW2_9_10
1 93170U 26001FN  26093.00000000  .00000000  00000-0  00000-0 0  9999
2 93170  86.5000  72.0000 0000000   0.0000 166.0000 13.22550000  1709
GW2_9_11
1 93171U 26001FO  26093.00000000  .00000000  00000-0  00000-0 0  9990
2 93171  86.5000  72.0000 0000000   0.0000 184.0000 13.22550000  1711
GW2_9_12
1 93172U 26001FP  26093.00000000  .00000000  00000-0  00000-0 0  9991
2 93172  86.5000  72.0000 0000000   0.0000 202.0000 13.22550000  1724
GW2_9_13
1 93173U 26001FQ  26093.00000000  .00000000  00000-0  00000-0 0  9992
2 93173  86.5000  72.0000 0000000   0.0000 220.0000 13.22550000  1736
GW2_9_14
1 93174U 26001FR  26093.00000000  .00000000  00000-0  00000-0 0  9993
2 93174  86.5000  72.0000 0000000   0.0000 238.0000 13.22550000  1747
GW2_9_15
1 93175U 26001FS  26093.00000000  .00000000  00000-0  00000-0 0  9994
2 93175  86.5000  72.0000 0000000   0.0000 256.0000 13.22550000  1759
GW2_9_16
1 93176U 26001FT  26093.00000000  .00000000  00000-0  00000-0 0  9995
2 93176  86.5000  72.0000 0000000   0.0000 274.0000 13.22550000  1761
GW2_9_17
1 93177U 26001FU  26093.00000000  .00000000  00000-0  00000-0 0  9996
2 93177  86.5000  72.0000 0000000   0.0000 292.0000 13.22550000  1773
GW2_9_18
1 93178U 26001FV  26093.00000000  .00000000  00000-0  00000-0 0  9997
2 93178  86.5000  72.0000 0000000   0.0000 310.0000 13.22550000  1786
GW2_9_19
1 93179U 26001FW  26093.00000000  .00000000  00000-0  00000-0 0  9998
2 93179  86.5000  72.0000 0000000   0.0000 328.0000 13.22550000  1797
GW2_9_20
1 93180U 26001FX  26093.00000000  .00000000  00000-0  00000-0 0  9990
2 93180  86.5000  72.0000 0000000   0.0000 346.0000 13.22550000  1801
GW2_10_1
1 93181U 26001FY  26093.00000000  .00000000  00000-0  00000-0 0  9991
2 93181  86.5000  81.0000 0000000   0.0000   4.5000 13.22550000  1819
GW2_10_2
1 93182U 26001FZ  26093.00000000  .00000000  00000-0  00000-0 0  9992
2 93182  86.5000  81.0000 0000000   0.0000  22.5000 13.22550000  1821
GW2_10_3
1 93183U 26001GA  26093.00000000  .00000000  00000-0  00000-0 0  9993
2 93183  86.5000  81.0000 0000000   0.0000  40.5000 13.22550000  1833
GW2_10_4
1 93184U 26001GB  26093.00000000  .00000000  00000-0  00000-0 0  9994
2 93184  86.5000  81.0000 0000000   0.0000  58.5000 13.22550000  1844
GW2_10_5
1 93185U 26001GC  26093.00000000  .00000000  00000-0  00000-0 0  9995
2 93185  86.5000  81.0000 0000000   0.0000  76.5000 13.22550000  1856
GW2_10_6
1 93186U 26001GD  26093.00000000  .00000000  00000-0  00000-0 0  9996
2 93186  86.5000  81.0000 0000000   0.0000  94.5000 13.22550000  1868
GW2_10_7
1 93187U 26001GE  26093.00000000  .00000000  00000-0  00000-0 0  9997
2 93187  86.5000  81.0000 0000000   0.0000 112.5000 13.22550000  1871
GW2_10_8
1 93188U 26001GF  26093.00000000  .00000000  00000-0  00000-0 0  9998
2 93188  86.5000  81.0000 0000000   0.0000 130.5000 13.22550000  1883
GW2_10_9
1 93189U 26001GG  26093.00000000  .00000000  00000-0  00000-0 0  9999
2 93189  86.5000  81.0000 0000000   0.0000 148.5000 13.22550000  1894
GW2_10_10
1 93190U 26001GH  26093.00000000  .00000000  00000-0  00000-0 0  9991
2 93190  86.5000  81.0000 0000000   0.0000 166.5000 13.22550000  1908
GW2_10_11
1 93191U 26001GI  26093.00000000  .00000000  00000-0  00000-0 0  9992
2 93191  86.5000  81.0000 0000000   0.0000 184.5000 13.22550000  1910
GW2_10_12
1 93192U 26001GJ  26093.00000000  .00000000  00000-0  00000-0 0  9993
2 93192  86.5000  81.0000 0000000   0.0000 202.5000 13.22550000  1923
GW2_10_13
1 93193U 26001GK  26093.00000000  .00000000  00000-0  00000-0 0  9994
2 93193  86.5000  81.0000 0000000   0.0000 220.5000 13.22550000  1935
GW2_10_14
1 93194U 26001GL  26093.00000000  .00000000  00000-0  00000-0 0  9995
2 93194  86.5000  81.0000 0000000   0.0000 238.5000 13.22550000  1946
GW2_10_15
1 93195U 26001GM  26093.00000000  .00000000  00000-0  00000-0 0  9996
2 93195  86.5000  81.0000 0000000   0.0000 256.5000 13.22550000  1958
GW2_10_16
1 93196U 26001GN  26093.00000000  .00000000  00000-0  00000-0 0  9997
2 93196  86.5000  81.0000 0000000   0.0000 274.5000 13.22550000  1960
GW2_10_17
1 93197U 26001GO  26093.00000000  .00000000  00000-0  00000-0 0  9998
2 93197  86.5000  81.0000 0000000   0.0000 292.5000 13.22550000  1972
GW2_10_18
1 93198U 26001GP  26093.00000000  .00000000  00000-0  00000-0 0  9999
2 93198  86.5000  81.0000 0000000   0.0000 310.5000 13.22550000  1985
GW2_10_19
1 93199U 26001GQ  26093.00000000  .00000000  00000-0  00000-0 0  9990
2 93199  86.5000  81.0000 0000000   0.0000 328.5000 13.22550000  1996
GW2_10_20
1 93200U 26001GR  26093.00000000  .00000000  00000-0  00000-0 0  9993
2 93200  86.5000  81.0000 0000000   0.0000 346.5000 13.22550000  2002
GW2_11_1
1 93201U 26001GS  26093.00000000  .00000000  00000-0  00000-0 0  9994
2 93201  86.5000  90.0000 0000000   0.0000   5.0000 13.22550000  2011
GW2_11_2
1 93202U 26001GT  26093.00000000  .00000000  00000-0  00000-0 0  9995
2 93202  86.5000  90.0000 0000000   0.0000  23.0000 13.22550000  2023
GW2_11_3
1 93203U 26001GU  26093.00000000  .00000000  00000-0  00000-0 0  9996
2 93203  86.5000  90.0000 0000000   0.0000  41.0000 13.22550000  2035
GW2_11_4
1 93204U 26001GV  26093.00000000  .00000000  00000-0  00000-0 0  9997
2 93204  86.5000  90.0000 0000000   0.0000  59.0000 13.22550000  2046
GW2_11_5
1 93205U 26001GW  26093.00000000  .00000000  00000-0  00000-0 0  9998
2 93205  86.5000  90.0000 0000000   0.0000  77.0000 13.22550000  2058
GW2_11_6
1 93206U 26001GX  26093.00000000  .00000000  00000-0  00000-0 0  9999
2 93206  86.5000  90.0000 0000000   0.0000  95.0000 13.22550000  2060
GW2_11_7
1 93207U 26001GY  26093.00000000  .00000000  00000-0  00000-0 0  9990
2 93207  86.5000  90.0000 0000000   0.0000 113.0000 13.22550000  2073
GW2_11_8
1 93208U 26001GZ  26093.00000000  .00000000  00000-0  00000-0 0  9991
2 93208  86.5000  90.0000 0000000   0.0000 131.0000 13.22550000  2085
GW2_11_9
1 93209U 26001HA  26093.00000000  .00000000  00000-0  00000-0 0  9992
2 93209  86.5000  90.0000 0000000   0.0000 149.0000 13.22550000  2096
GW2_11_10
1 93210U 26001HB  26093.00000000  .00000000  00000-0  00000-0 0  9994
2 93210  86.5000  90.0000 0000000   0.0000 167.0000 13.22550000  2100
GW2_11_11
1 93211U 26001HC  26093.00000000  .00000000  00000-0  00000-0 0  9995
2 93211  86.5000  90.0000 0000000   0.0000 185.0000 13.22550000  2112
GW2_11_12
1 93212U 26001HD  26093.00000000  .00000000  00000-0  00000-0 0  9996
2 93212  86.5000  90.0000 0000000   0.0000 203.0000 13.22550000  2125
GW2_11_13
1 93213U 26001HE  26093.00000000  .00000000  00000-0  00000-0 0  9997
2 93213  86.5000  90.0000 0000000   0.0000 221.0000 13.22550000  2137
GW2_11_14
1 93214U 26001HF  26093.00000000  .00000000  00000-0  00000-0 0  9998
2 93214  86.5000  90.0000 0000000   0.0000 239.0000 13.22550000  2148
GW2_11_15
1 93215U 26001HG  26093.00000000  .00000000  00000-0  00000-0 0  9999
2 93215  86.5000  90.0000 0000000   0.0000 257.0000 13.22550000  2150
GW2_11_16
1 93216U 26001HH  26093.00000000  .00000000  00000-0  00000-0 0  9990
2 93216  86.5000  90.0000 0000000   0.0000 275.0000 13.22550000  2162
GW2_11_17
1 93217U 26001HI  26093.00000000  .00000000  00000-0  00000-0 0  9991
2 93217  86.5000  90.0000 0000000   0.0000 293.0000 13.22550000  2174
GW2_11_18
1 93218U 26001HJ  26093.00000000  .00000000  00000-0  00000-0 0  9992
2 93218  86.5000  90.0000 0000000   0.0000 311.0000 13.22550000  2187
GW2_11_19
1 93219U 26001HK  26093.00000000  .00000000  00000-0  00000-0 0  9993
2 93219  86.5000  90.0000 0000000   0.0000 329.0000 13.22550000  2198
GW2_11_20
1 93220U 26001HL  26093.00000000  .00000000  00000-0  00000-0 0  9995
2 93220  86.5000  90.0000 0000000   0.0000 347.0000 13.22550000  2202
GW2_12_1
1 93221U 26001HM  26093.00000000  .00000000  00000-0  00000-0 0  9996
2 93221  86.5000  99.0000 0000000   0.0000   5.5000 13.22550000  2219
GW2_12_2
1 93222U 26001HN  26093.00000000  .00000000  00000-0  00000-0 0  9997
2 93222  86.5000  99.0000 0000000   0.0000  23.5000 13.22550000  2221
GW2_12_3
1 93223U 26001HO  26093.00000000  .00000000  00000-0  00000-0 0  9998
2 93223  86.5000  99.0000 0000000   0.0000  41.5000 13.22550000  2233
GW2_12_4
1 93224U 26001HP  26093.00000000  .00000000  00000-0  00000-0 0  9999
2 93224  86.5000  99.0000 0000000   0.0000  59.5000 13.22550000  2244
GW2_12_5
1 93225U 26001HQ  26093.00000000  .00000000  00000-0  00000-0 0  9990
2 93225  86.5000  99.0000 0000000   0.0000  77.5000 13.22550000  2256
GW2_12_6
1 93226U 26001HR  26093.00000000  .00000000  00000-0  00000-0 0  9991
2 93226  86.5000  99.0000 0000000   0.0000  95.5000 13.22550000  2268
GW2_12_7
1 93227U 26001HS  26093.00000000  .00000000  00000-0  00000-0 0  9992
2 93227  86.5000  99.0000 0000000   0.0000 113.5000 13.22550000  2271
GW2_12_8
1 93228U 26001HT  26093.00000000  .00000000  00000-0  00000-0 0  9993
2 93228  86.5000  99.0000 0000000   0.0000 131.5000 13.22550000  2283
GW2_12_9
1 93229U 26001HU  26093.00000000  .00000000  00000-0  00000-0 0  9994
2 93229  86.5000  99.0000 0000000   0.0000 149.5000 13.22550000  2294
GW2_12_10
1 93230U 26001HV  26093.00000000  .00000000  00000-0  00000-0 0  9996
2 93230  86.5000  99.0000 0000000   0.0000 167.5000 13.22550000  2308
GW2_12_11
1 93231U 26001HW  26093.00000000  .00000000  00000-0  00000-0 0  9997
2 93231  86.5000  99.0000 0000000   0.0000 185.5000 13.22550000  2310
GW2_12_12
1 93232U 26001HX  26093.00000000  .00000000  00000-0  00000-0 0  9998
2 93232  86.5000  99.0000 0000000   0.0000 203.5000 13.22550000  2323
GW2_12_13
1 93233U 26001HY  26093.00000000  .00000000  00000-0  00000-0 0  9999
2 93233  86.5000  99.0000 0000000   0.0000 221.5000 13.22550000  2335
GW2_12_14
1 93234U 26001HZ  26093.00000000  .00000000  00000-0  00000-0 0  9990
2 93234  86.5000  99.0000 0000000   0.0000 239.5000 13.22550000  2346
GW2_12_15
1 93235U 26001IA  26093.00000000  .00000000  00000-0  00000-0 0  9991
2 93235  86.5000  99.0000 0000000   0.0000 257.5000 13.22550000  2358
GW2_12_16
1 93236U 26001IB  26093.00000000  .00000000  00000-0  00000-0 0  9992
2 93236  86.5000  99.0000 0000000   0.0000 275.5000 13.22550000  2360
GW2_12_17
1 93237U 26001IC  26093.00000000  .00000000  00000-0  00000-0 0  9993
2 93237  86.5000  99.0000 0000000   0.0000 293.5000 13.22550000  2372
GW2_12_18
1 93238U 26001ID  26093.00000000  .00000000  00000-0  00000-0 0  9994
2 93238  86.5000  99.0000 0000000   0.0000 311.5000 13.22550000  2385
GW2_12_19
1 93239U 26001IE  26093.00000000  .00000000  00000-0  00000-0 0  9995
2 93239  86.5000  99.0000 0000000   0.0000 329.5000 13.22550000  2396
GW2_12_20
1 93240U 26001IF  26093.00000000  .00000000  00000-0  00000-0 0  9997
2 93240  86.5000  99.0000 0000000   0.0000 347.5000 13.22550000  2400
GW2_13_1
1 93241U 26001IG  26093.00000000  .00000000  00000-0  00000-0 0  9998
2 93241  86.5000 108.0000 0000000   0.0000   6.0000 13.22550000  2410
GW2_13_2
1 93242U 26001IH  26093.00000000  .00000000  00000-0  00000-0 0  9999
2 93242  86.5000 108.0000 0000000   0.0000  24.0000 13.22550000  2422
GW2_13_3
1 93243U 26001II  26093.00000000  .00000000  00000-0  00000-0 0  9990
2 93243  86.5000 108.0000 0000000   0.0000  42.0000 13.22550000  2434
GW2_13_4
1 93244U 26001IJ  26093.00000000  .00000000  00000-0  00000-0 0  9991
2 93244  86.5000 108.0000 0000000   0.0000  60.0000 13.22550000  2446
GW2_13_5
1 93245U 26001IK  26093.00000000  .00000000  00000-0  00000-0 0  9992
2 93245  86.5000 108.0000 0000000   0.0000  78.0000 13.22550000  2457
GW2_13_6
1 93246U 26001IL  26093.00000000  .00000000  00000-0  00000-0 0  9993
2 93246  86.5000 108.0000 0000000   0.0000  96.0000 13.22550000  2469
GW2_13_7
1 93247U 26001IM  26093.00000000  .00000000  00000-0  00000-0 0  9994
2 93247  86.5000 108.0000 0000000   0.0000 114.0000 13.22550000  2472
GW2_13_8
1 93248U 26001IN  26093.00000000  .00000000  00000-0  00000-0 0  9995
2 93248  86.5000 108.0000 0000000   0.0000 132.0000 13.22550000  2484
GW2_13_9
1 93249U 26001IO  26093.00000000  .00000000  00000-0  00000-0 0  9996
2 93249  86.5000 108.0000 0000000   0.0000 150.0000 13.22550000  2496
GW2_13_10
1 93250U 26001IP  26093.00000000  .00000000  00000-0  00000-0 0  9998
2 93250  86.5000 108.0000 0000000   0.0000 168.0000 13.22550000  2509
GW2_13_11
1 93251U 26001IQ  26093.00000000  .00000000  00000-0  00000-0 0  9999
2 93251  86.5000 108.0000 0000000   0.0000 186.0000 13.22550000  2511
GW2_13_12
1 93252U 26001IR  26093.00000000  .00000000  00000-0  00000-0 0  9990
2 93252  86.5000 108.0000 0000000   0.0000 204.0000 13.22550000  2524
GW2_13_13
1 93253U 26001IS  26093.00000000  .00000000  00000-0  00000-0 0  9991
2 93253  86.5000 108.0000 0000000   0.0000 222.0000 13.22550000  2536
GW2_13_14
1 93254U 26001IT  26093.00000000  .00000000  00000-0  00000-0 0  9992
2 93254  86.5000 108.0000 0000000   0.0000 240.0000 13.22550000  2548
GW2_13_15
1 93255U 26001IU  26093.00000000  .00000000  00000-0  00000-0 0  9993
2 93255  86.5000 108.0000 0000000   0.0000 258.0000 13.22550000  2559
GW2_13_16
1 93256U 26001IV  26093.00000000  .00000000  00000-0  00000-0 0  9994
2 93256  86.5000 108.0000 0000000   0.0000 276.0000 13.22550000  2561
GW2_13_17
1 93257U 26001IW  26093.00000000  .00000000  00000-0  00000-0 0  9995
2 93257  86.5000 108.0000 0000000   0.0000 294.0000 13.22550000  2573
GW2_13_18
1 93258U 26001IX  26093.00000000  .00000000  00000-0  00000-0 0  9996
2 93258  86.5000 108.0000 0000000   0.0000 312.0000 13.22550000  2586
GW2_13_19
1 93259U 26001IY  26093.00000000  .00000000  00000-0  00000-0 0  9997
2 93259  86.5000 108.0000 0000000   0.0000 330.0000 13.22550000  2598
GW2_13_20
1 93260U 26001IZ  26093.00000000  .00000000  00000-0  00000-0 0  9999
2 93260  86.5000 108.0000 0000000   0.0000 348.0000 13.22550000  2601
GW2_14_1
1 93261U 26001JA  26093.00000000  .00000000  00000-0  00000-0 0  9990
2 93261  86.5000 117.0000 0000000   0.0000   6.5000 13.22550000  2619
GW2_14_2
1 93262U 26001JB  26093.00000000  .00000000  00000-0  00000-0 0  9991
2 93262  86.5000 117.0000 0000000   0.0000  24.5000 13.22550000  2621
GW2_14_3
1 93263U 26001JC  26093.00000000  .00000000  00000-0  00000-0 0  9992
2 93263  86.5000 117.0000 0000000   0.0000  42.5000 13.22550000  2633
GW2_14_4
1 93264U 26001JD  26093.00000000  .00000000  00000-0  00000-0 0  9993
2 93264  86.5000 117.0000 0000000   0.0000  60.5000 13.22550000  2645
GW2_14_5
1 93265U 26001JE  26093.00000000  .00000000  00000-0  00000-0 0  9994
2 93265  86.5000 117.0000 0000000   0.0000  78.5000 13.22550000  2656
GW2_14_6
1 93266U 26001JF  26093.00000000  .00000000  00000-0  00000-0 0  9995
2 93266  86.5000 117.0000 0000000   0.0000  96.5000 13.22550000  2668
GW2_14_7
1 93267U 26001JG  26093.00000000  .00000000  00000-0  00000-0 0  9996
2 93267  86.5000 117.0000 0000000   0.0000 114.5000 13.22550000  2671
GW2_14_8
1 93268U 26001JH  26093.00000000  .00000000  00000-0  00000-0 0  9997
2 93268  86.5000 117.0000 0000000   0.0000 132.5000 13.22550000  2683
GW2_14_9
1 93269U 26001JI  26093.00000000  .00000000  00000-0  00000-0 0  9998
2 93269  86.5000 117.0000 0000000   0.0000 150.5000 13.22550000  2695
GW2_14_10
1 93270U 26001JJ  26093.00000000  .00000000  00000-0  00000-0 0  9990
2 93270  86.5000 117.0000 0000000   0.0000 168.5000 13.22550000  2708
GW2_14_11
1 93271U 26001JK  26093.00000000  .00000000  00000-0  00000-0 0  9991
2 93271  86.5000 117.0000 0000000   0.0000 186.5000 13.22550000  2710
GW2_14_12
1 93272U 26001JL  26093.00000000  .00000000  00000-0  00000-0 0  9992
2 93272  86.5000 117.0000 0000000   0.0000 204.5000 13.22550000  2723
GW2_14_13
1 93273U 26001JM  26093.00000000  .00000000  00000-0  00000-0 0  9993
2 93273  86.5000 117.0000 0000000   0.0000 222.5000 13.22550000  2735
GW2_14_14
1 93274U 26001JN  26093.00000000  .00000000  00000-0  00000-0 0  9994
2 93274  86.5000 117.0000 0000000   0.0000 240.5000 13.22550000  2747
GW2_14_15
1 93275U 26001JO  26093.00000000  .00000000  00000-0  00000-0 0  9995
2 93275  86.5000 117.0000 0000000   0.0000 258.5000 13.22550000  2758
GW2_14_16
1 93276U 26001JP  26093.00000000  .00000000  00000-0  00000-0 0  9996
2 93276  86.5000 117.0000 0000000   0.0000 276.5000 13.22550000  2760
GW2_14_17
1 93277U 26001JQ  26093.00000000  .00000000  00000-0  00000-0 0  9997
2 93277  86.5000 117.0000 0000000   0.0000 294.5000 13.22550000  2772
GW2_14_18
1 93278U 26001JR  26093.00000000  .00000000  00000-0  00000-0 0  9998
2 93278  86.5000 117.0000 0000000   0.0000 312.5000 13.22550000  2785
GW2_14_19
1 93279U 26001JS  26093.00000000  .00000000  00000-0  00000-0 0  9999
2 93279  86.5000 117.0000 0000000   0.0000 330.5000 13.22550000  2797
GW2_14_20
1 93280U 26001JT  26093.00000000  .00000000  00000-0  00000-0 0  9991
2 93280  86.5000 117.0000 0000000   0.0000 348.5000 13.22550000  2800
GW2_15_1
1 93281U 26001JU  26093.00000000  .00000000  00000-0  00000-0 0  9992
2 93281  86.5000 126.0000 0000000   0.0000   7.0000 13.22550000  2819
GW2_15_2
1 93282U 26001JV  26093.00000000  .00000000  00000-0  00000-0 0  9993
2 93282  86.5000 126.0000 0000000   0.0000  25.0000 13.22550000  2821
GW2_15_3
1 93283U 26001JW  26093.00000000  .00000000  00000-0  00000-0 0  9994
2 93283  86.5000 126.0000 0000000   0.0000  43.0000 13.22550000  2833
GW2_15_4
1 93284U 26001JX  26093.00000000  .00000000  00000-0  00000-0 0  9995
2 93284  86.5000 126.0000 0000000   0.0000  61.0000 13.22550000  2845
GW2_15_5
1 93285U 26001JY  26093.00000000  .00000000  00000-0  00000-0 0  9996
2 93285  86.5000 126.0000 0000000   0.0000  79.0000 13.22550000  2856
GW2_15_6
1 93286U 26001JZ  26093.00000000  .00000000  00000-0  00000-0 0  9997
2 93286  86.5000 126.0000 0000000   0.0000  97.0000 13.22550000  2868
GW2_15_7
1 93287U 26001KA  26093.00000000  .00000000  00000-0  00000-0 0  9998
2 93287  86.5000 126.0000 0000000   0.0000 115.0000 13.22550000  2871
GW2_15_8
1 93288U 26001KB  26093.00000000  .00000000  00000-0  00000-0 0  9999
2 93288  86.5000 126.0000 0000000   0.0000 133.0000 13.22550000  2883
GW2_15_9
1 93289U 26001KC  26093.00000000  .00000000  00000-0  00000-0 0  9990
2 93289  86.5000 126.0000 0000000   0.0000 151.0000 13.22550000  2895
GW2_15_10
1 93290U 26001KD  26093.00000000  .00000000  00000-0  00000-0 0  9992
2 93290  86.5000 126.0000 0000000   0.0000 169.0000 13.22550000  2908
GW2_15_11
1 93291U 26001KE  26093.00000000  .00000000  00000-0  00000-0 0  9993
2 93291  86.5000 126.0000 0000000   0.0000 187.0000 13.22550000  2910
GW2_15_12
1 93292U 26001KF  26093.00000000  .00000000  00000-0  00000-0 0  9994
2 93292  86.5000 126.0000 0000000   0.0000 205.0000 13.22550000  2923
GW2_15_13
1 93293U 26001KG  26093.00000000  .00000000  00000-0  00000-0 0  9995
2 93293  86.5000 126.0000 0000000   0.0000 223.0000 13.22550000  2935
GW2_15_14
1 93294U 26001KH  26093.00000000  .00000000  00000-0  00000-0 0  9996
2 93294  86.5000 126.0000 0000000   0.0000 241.0000 13.22550000  2947
GW2_15_15
1 93295U 26001KI  26093.00000000  .00000000  00000-0  00000-0 0  9997
2 93295  86.5000 126.0000 0000000   0.0000 259.0000 13.22550000  2958
GW2_15_16
1 93296U 26001KJ  26093.00000000  .00000000  00000-0  00000-0 0  9998
2 93296  86.5000 126.0000 0000000   0.0000 277.0000 13.22550000  2960
GW2_15_17
1 93297U 26001KK  26093.00000000  .00000000  00000-0  00000-0 0  9999
2 93297  86.5000 126.0000 0000000   0.0000 295.0000 13.22550000  2972
GW2_15_18
1 93298U 26001KL  26093.00000000  .00000000  00000-0  00000-0 0  9990
2 93298  86.5000 126.0000 0000000   0.0000 313.0000 13.22550000  2985
GW2_15_19
1 93299U 26001KM  26093.00000000  .00000000  00000-0  00000-0 0  9991
2 93299  86.5000 126.0000 0000000   0.0000 331.0000 13.22550000  2997
GW2_15_20
1 93300U 26001KN  26093.00000000  .00000000  00000-0  00000-0 0  9994
2 93300  86.5000 126.0000 0000000   0.0000 349.0000 13.22550000  3002
GW2_16_1
1 93301U 26001KO  26093.00000000  .00000000  00000-0  00000-0 0  9995
2 93301  86.5000 135.0000 0000000   0.0000   7.5000 13.22550000  3010
GW2_16_2
1 93302U 26001KP  26093.00000000  .00000000  00000-0  00000-0 0  9996
2 93302  86.5000 135.0000 0000000   0.0000  25.5000 13.22550000  3022
GW2_16_3
1 93303U 26001KQ  26093.00000000  .00000000  00000-0  00000-0 0  9997
2 93303  86.5000 135.0000 0000000   0.0000  43.5000 13.22550000  3034
GW2_16_4
1 93304U 26001KR  26093.00000000  .00000000  00000-0  00000-0 0  9998
2 93304  86.5000 135.0000 0000000   0.0000  61.5000 13.22550000  3046
GW2_16_5
1 93305U 26001KS  26093.00000000  .00000000  00000-0  00000-0 0  9999
2 93305  86.5000 135.0000 0000000   0.0000  79.5000 13.22550000  3057
GW2_16_6
1 93306U 26001KT  26093.00000000  .00000000  00000-0  00000-0 0  9990
2 93306  86.5000 135.0000 0000000   0.0000  97.5000 13.22550000  3069
GW2_16_7
1 93307U 26001KU  26093.00000000  .00000000  00000-0  00000-0 0  9991
2 93307  86.5000 135.0000 0000000   0.0000 115.5000 13.22550000  3072
GW2_16_8
1 93308U 26001KV  26093.00000000  .00000000  00000-0  00000-0 0  9992
2 93308  86.5000 135.0000 0000000   0.0000 133.5000 13.22550000  3084
GW2_16_9
1 93309U 26001KW  26093.00000000  .00000000  00000-0  00000-0 0  9993
2 93309  86.5000 135.0000 0000000   0.0000 151.5000 13.22550000  3096
GW2_16_10
1 93310U 26001KX  26093.00000000  .00000000  00000-0  00000-0 0  9995
2 93310  86.5000 135.0000 0000000   0.0000 169.5000 13.22550000  3109
GW2_16_11
1 93311U 26001KY  26093.00000000  .00000000  00000-0  00000-0 0  9996
2 93311  86.5000 135.0000 0000000   0.0000 187.5000 13.22550000  3111
GW2_16_12
1 93312U 26001KZ  26093.00000000  .00000000  00000-0  00000-0 0  9997
2 93312  86.5000 135.0000 0000000   0.0000 205.5000 13.22550000  3124
GW2_16_13
1 93313U 26001LA  26093.00000000  .00000000  00000-0  00000-0 0  9998
2 93313  86.5000 135.0000 0000000   0.0000 223.5000 13.22550000  3136
GW2_16_14
1 93314U 26001LB  26093.00000000  .00000000  00000-0  00000-0 0  9999
2 93314  86.5000 135.0000 0000000   0.0000 241.5000 13.22550000  3148
GW2_16_15
1 93315U 26001LC  26093.00000000  .00000000  00000-0  00000-0 0  9990
2 93315  86.5000 135.0000 0000000   0.0000 259.5000 13.22550000  3159
GW2_16_16
1 93316U 26001LD  26093.00000000  .00000000  00000-0  00000-0 0  9991
2 93316  86.5000 135.0000 0000000   0.0000 277.5000 13.22550000  3161
GW2_16_17
1 93317U 26001LE  26093.00000000  .00000000  00000-0  00000-0 0  9992
2 93317  86.5000 135.0000 0000000   0.0000 295.5000 13.22550000  3173
GW2_16_18
1 93318U 26001LF  26093.00000000  .00000000  00000-0  00000-0 0  9993
2 93318  86.5000 135.0000 0000000   0.0000 313.5000 13.22550000  3186
GW2_16_19
1 93319U 26001LG  26093.00000000  .00000000  00000-0  00000-0 0  9994
2 93319  86.5000 135.0000 0000000   0.0000 331.5000 13.22550000  3198
GW2_16_20
1 93320U 26001LH  26093.00000000  .00000000  00000-0  00000-0 0  9996
2 93320  86.5000 135.0000 0000000   0.0000 349.5000 13.22550000  3201
GW2_17_1
1 93321U 26001LI  26093.00000000  .00000000  00000-0  00000-0 0  9997
2 93321  86.5000 144.0000 0000000   0.0000   8.0000 13.22550000  3210
GW2_17_2
1 93322U 26001LJ  26093.00000000  .00000000  00000-0  00000-0 0  9998
2 93322  86.5000 144.0000 0000000   0.0000  26.0000 13.22550000  3222
GW2_17_3
1 93323U 26001LK  26093.00000000  .00000000  00000-0  00000-0 0  9999
2 93323  86.5000 144.0000 0000000   0.0000  44.0000 13.22550000  3234
GW2_17_4
1 93324U 26001LL  26093.00000000  .00000000  00000-0  00000-0 0  9990
2 93324  86.5000 144.0000 0000000   0.0000  62.0000 13.22550000  3246
GW2_17_5
1 93325U 26001LM  26093.00000000  .00000000  00000-0  00000-0 0  9991
2 93325  86.5000 144.0000 0000000   0.0000  80.0000 13.22550000  3258
GW2_17_6
1 93326U 26001LN  26093.00000000  .00000000  00000-0  00000-0 0  9992
2 93326  86.5000 144.0000 0000000   0.0000  98.0000 13.22550000  3269
GW2_17_7
1 93327U 26001LO  26093.00000000  .00000000  00000-0  00000-0 0  9993
2 93327  86.5000 144.0000 0000000   0.0000 116.0000 13.22550000  3272
GW2_17_8
1 93328U 26001LP  26093.00000000  .00000000  00000-0  00000-0 0  9994
2 93328  86.5000 144.0000 0000000   0.0000 134.0000 13.22550000  3284
GW2_17_9
1 93329U 26001LQ  26093.00000000  .00000000  00000-0  00000-0 0  9995
2 93329  86.5000 144.0000 0000000   0.0000 152.0000 13.22550000  3296
GW2_17_10
1 93330U 26001LR  26093.00000000  .00000000  00000-0  00000-0 0  9997
2 93330  86.5000 144.0000 0000000   0.0000 170.0000 13.22550000  3300
GW2_17_11
1 93331U 26001LS  26093.00000000  .00000000  00000-0  00000-0 0  9998
2 93331  86.5000 144.0000 0000000   0.0000 188.0000 13.22550000  3311
GW2_17_12
1 93332U 26001LT  26093.00000000  .00000000  00000-0  00000-0 0  9999
2 93332  86.5000 144.0000 0000000   0.0000 206.0000 13.22550000  3324
GW2_17_13
1 93333U 26001LU  26093.00000000  .00000000  00000-0  00000-0 0  9990
2 93333  86.5000 144.0000 0000000   0.0000 224.0000 13.22550000  3336
GW2_17_14
1 93334U 26001LV  26093.00000000  .00000000  00000-0  00000-0 0  9991
2 93334  86.5000 144.0000 0000000   0.0000 242.0000 13.22550000  3348
GW2_17_15
1 93335U 26001LW  26093.00000000  .00000000  00000-0  00000-0 0  9992
2 93335  86.5000 144.0000 0000000   0.0000 260.0000 13.22550000  3350
GW2_17_16
1 93336U 26001LX  26093.00000000  .00000000  00000-0  00000-0 0  9993
2 93336  86.5000 144.0000 0000000   0.0000 278.0000 13.22550000  3361
GW2_17_17
1 93337U 26001LY  26093.00000000  .00000000  00000-0  00000-0 0  9994
2 93337  86.5000 144.0000 0000000   0.0000 296.0000 13.22550000  3373
GW2_17_18
1 93338U 26001LZ  26093.00000000  .00000000  00000-0  00000-0 0  9995
2 93338  86.5000 144.0000 0000000   0.0000 314.0000 13.22550000  3386
GW2_17_19
1 93339U 26001MA  26093.00000000  .00000000  00000-0  00000-0 0  9996
2 93339  86.5000 144.0000 0000000   0.0000 332.0000 13.22550000  3398
GW2_17_20
1 93340U 26001MB  26093.00000000  .00000000  00000-0  00000-0 0  9998
2 93340  86.5000 144.0000 0000000   0.0000 350.0000 13.22550000  3402
GW2_18_1
1 93341U 26001MC  26093.00000000  .00000000  00000-0  00000-0 0  9999
2 93341  86.5000 153.0000 0000000   0.0000   8.5000 13.22550000  3419
GW2_18_2
1 93342U 26001MD  26093.00000000  .00000000  00000-0  00000-0 0  9990
2 93342  86.5000 153.0000 0000000   0.0000  26.5000 13.22550000  3421
GW2_18_3
1 93343U 26001ME  26093.00000000  .00000000  00000-0  00000-0 0  9991
2 93343  86.5000 153.0000 0000000   0.0000  44.5000 13.22550000  3433
GW2_18_4
1 93344U 26001MF  26093.00000000  .00000000  00000-0  00000-0 0  9992
2 93344  86.5000 153.0000 0000000   0.0000  62.5000 13.22550000  3445
GW2_18_5
1 93345U 26001MG  26093.00000000  .00000000  00000-0  00000-0 0  9993
2 93345  86.5000 153.0000 0000000   0.0000  80.5000 13.22550000  3457
GW2_18_6
1 93346U 26001MH  26093.00000000  .00000000  00000-0  00000-0 0  9994
2 93346  86.5000 153.0000 0000000   0.0000  98.5000 13.22550000  3468
GW2_18_7
1 93347U 26001MI  26093.00000000  .00000000  00000-0  00000-0 0  9995
2 93347  86.5000 153.0000 0000000   0.0000 116.5000 13.22550000  3471
GW2_18_8
1 93348U 26001MJ  26093.00000000  .00000000  00000-0  00000-0 0  9996
2 93348  86.5000 153.0000 0000000   0.0000 134.5000 13.22550000  3483
GW2_18_9
1 93349U 26001MK  26093.00000000  .00000000  00000-0  00000-0 0  9997
2 93349  86.5000 153.0000 0000000   0.0000 152.5000 13.22550000  3495
GW2_18_10
1 93350U 26001ML  26093.00000000  .00000000  00000-0  00000-0 0  9999
2 93350  86.5000 153.0000 0000000   0.0000 170.5000 13.22550000  3509
GW2_18_11
1 93351U 26001MM  26093.00000000  .00000000  00000-0  00000-0 0  9990
2 93351  86.5000 153.0000 0000000   0.0000 188.5000 13.22550000  3510
GW2_18_12
1 93352U 26001MN  26093.00000000  .00000000  00000-0  00000-0 0  9991
2 93352  86.5000 153.0000 0000000   0.0000 206.5000 13.22550000  3523
GW2_18_13
1 93353U 26001MO  26093.00000000  .00000000  00000-0  00000-0 0  9992
2 93353  86.5000 153.0000 0000000   0.0000 224.5000 13.22550000  3535
GW2_18_14
1 93354U 26001MP  26093.00000000  .00000000  00000-0  00000-0 0  9993
2 93354  86.5000 153.0000 0000000   0.0000 242.5000 13.22550000  3547
GW2_18_15
1 93355U 26001MQ  26093.00000000  .00000000  00000-0  00000-0 0  9994
2 93355  86.5000 153.0000 0000000   0.0000 260.5000 13.22550000  3559
GW2_18_16
1 93356U 26001MR  26093.00000000  .00000000  00000-0  00000-0 0  9995
2 93356  86.5000 153.0000 0000000   0.0000 278.5000 13.22550000  3560
GW2_18_17
1 93357U 26001MS  26093.00000000  .00000000  00000-0  00000-0 0  9996
2 93357  86.5000 153.0000 0000000   0.0000 296.5000 13.22550000  3572
GW2_18_18
1 93358U 26001MT  26093.00000000  .00000000  00000-0  00000-0 0  9997
2 93358  86.5000 153.0000 0000000   0.0000 314.5000 13.22550000  3585
GW2_18_19
1 93359U 26001MU  26093.00000000  .00000000  00000-0  00000-0 0  9998
2 93359  86.5000 153.0000 0000000   0.0000 332.5000 13.22550000  3597
GW2_18_20
1 93360U 26001MV  26093.00000000  .00000000  00000-0  00000-0 0  9990
2 93360  86.5000 153.0000 0000000   0.0000 350.5000 13.22550000  3601
GW2_19_1
1 93361U 26001MW  26093.00000000  .00000000  00000-0  00000-0 0  9991
2 93361  86.5000 162.0000 0000000   0.0000   9.0000 13.22550000  3619
GW2_19_2
1 93362U 26001MX  26093.00000000  .00000000  00000-0  00000-0 0  9992
2 93362  86.5000 162.0000 0000000   0.0000  27.0000 13.22550000  3621
GW2_19_3
1 93363U 26001MY  26093.00000000  .00000000  00000-0  00000-0 0  9993
2 93363  86.5000 162.0000 0000000   0.0000  45.0000 13.22550000  3633
GW2_19_4
1 93364U 26001MZ  26093.00000000  .00000000  00000-0  00000-0 0  9994
2 93364  86.5000 162.0000 0000000   0.0000  63.0000 13.22550000  3645
GW2_19_5
1 93365U 26001NA  26093.00000000  .00000000  00000-0  00000-0 0  9995
2 93365  86.5000 162.0000 0000000   0.0000  81.0000 13.22550000  3657
GW2_19_6
1 93366U 26001NB  26093.00000000  .00000000  00000-0  00000-0 0  9996
2 93366  86.5000 162.0000 0000000   0.0000  99.0000 13.22550000  3668
GW2_19_7
1 93367U 26001NC  26093.00000000  .00000000  00000-0  00000-0 0  9997
2 93367  86.5000 162.0000 0000000   0.0000 117.0000 13.22550000  3671
GW2_19_8
1 93368U 26001ND  26093.00000000  .00000000  00000-0  00000-0 0  9998
2 93368  86.5000 162.0000 0000000   0.0000 135.0000 13.22550000  3683
GW2_19_9
1 93369U 26001NE  26093.00000000  .00000000  00000-0  00000-0 0  9999
2 93369  86.5000 162.0000 0000000   0.0000 153.0000 13.22550000  3695
GW2_19_10
1 93370U 26001NF  26093.00000000  .00000000  00000-0  00000-0 0  9991
2 93370  86.5000 162.0000 0000000   0.0000 171.0000 13.22550000  3709
GW2_19_11
1 93371U 26001NG  26093.00000000  .00000000  00000-0  00000-0 0  9992
2 93371  86.5000 162.0000 0000000   0.0000 189.0000 13.22550000  3710
GW2_19_12
1 93372U 26001NH  26093.00000000  .00000000  00000-0  00000-0 0  9993
2 93372  86.5000 162.0000 0000000   0.0000 207.0000 13.22550000  3723
GW2_19_13
1 93373U 26001NI  26093.00000000  .00000000  00000-0  00000-0 0  9994
2 93373  86.5000 162.0000 0000000   0.0000 225.0000 13.22550000  3735
GW2_19_14
1 93374U 26001NJ  26093.00000000  .00000000  00000-0  00000-0 0  9995
2 93374  86.5000 162.0000 0000000   0.0000 243.0000 13.22550000  3747
GW2_19_15
1 93375U 26001NK  26093.00000000  .00000000  00000-0  00000-0 0  9996
2 93375  86.5000 162.0000 0000000   0.0000 261.0000 13.22550000  3759
GW2_19_16
1 93376U 26001NL  26093.00000000  .00000000  00000-0  00000-0 0  9997
2 93376  86.5000 162.0000 0000000   0.0000 279.0000 13.22550000  3760
GW2_19_17
1 93377U 26001NM  26093.00000000  .00000000  00000-0  00000-0 0  9998
2 93377  86.5000 162.0000 0000000   0.0000 297.0000 13.22550000  3772
GW2_19_18
1 93378U 26001NN  26093.00000000  .00000000  00000-0  00000-0 0  9999
2 93378  86.5000 162.0000 0000000   0.0000 315.0000 13.22550000  3785
GW2_19_19
1 93379U 26001NO  26093.00000000  .00000000  00000-0  00000-0 0  9990
2 93379  86.5000 162.0000 0000000   0.0000 333.0000 13.22550000  3797
GW2_19_20
1 93380U 26001NP  26093.00000000  .00000000  00000-0  00000-0 0  9992
2 93380  86.5000 162.0000 0000000   0.0000 351.0000 13.22550000  3801
GW2_20_1
1 93381U 26001NQ  26093.00000000  .00000000  00000-0  00000-0 0  9993
2 93381  86.5000 171.0000 0000000   0.0000   9.5000 13.22550000  3818
GW2_20_2
1 93382U 26001NR  26093.00000000  .00000000  00000-0  00000-0 0  9994
2 93382  86.5000 171.0000 0000000   0.0000  27.5000 13.22550000  3820
GW2_20_3
1 93383U 26001NS  26093.00000000  .00000000  00000-0  00000-0 0  9995
2 93383  86.5000 171.0000 0000000   0.0000  45.5000 13.22550000  3832
GW2_20_4
1 93384U 26001NT  26093.00000000  .00000000  00000-0  00000-0 0  9996
2 93384  86.5000 171.0000 0000000   0.0000  63.5000 13.22550000  3844
GW2_20_5
1 93385U 26001NU  26093.00000000  .00000000  00000-0  00000-0 0  9997
2 93385  86.5000 171.0000 0000000   0.0000  81.5000 13.22550000  3856
GW2_20_6
1 93386U 26001NV  26093.00000000  .00000000  00000-0  00000-0 0  9998
2 93386  86.5000 171.0000 0000000   0.0000  99.5000 13.22550000  3867
GW2_20_7
1 93387U 26001NW  26093.00000000  .00000000  00000-0  00000-0 0  9999
2 93387  86.5000 171.0000 0000000   0.0000 117.5000 13.22550000  3870
GW2_20_8
1 93388U 26001NX  26093.00000000  .00000000  00000-0  00000-0 0  9990
2 93388  86.5000 171.0000 0000000   0.0000 135.5000 13.22550000  3882
GW2_20_9
1 93389U 26001NY  26093.00000000  .00000000  00000-0  00000-0 0  9991
2 93389  86.5000 171.0000 0000000   0.0000 153.5000 13.22550000  3894
GW2_20_10
1 93390U 26001NZ  26093.00000000  .00000000  00000-0  00000-0 0  9993
2 93390  86.5000 171.0000 0000000   0.0000 171.5000 13.22550000  3908
GW2_20_11
1 93391U 26001OA  26093.00000000  .00000000  00000-0  00000-0 0  9994
2 93391  86.5000 171.0000 0000000   0.0000 189.5000 13.22550000  3919
GW2_20_12
1 93392U 26001OB  26093.00000000  .00000000  00000-0  00000-0 0  9995
2 93392  86.5000 171.0000 0000000   0.0000 207.5000 13.22550000  3922
GW2_20_13
1 93393U 26001OC  26093.00000000  .00000000  00000-0  00000-0 0  9996
2 93393  86.5000 171.0000 0000000   0.0000 225.5000 13.22550000  3934
GW2_20_14
1 93394U 26001OD  26093.00000000  .00000000  00000-0  00000-0 0  9997
2 93394  86.5000 171.0000 0000000   0.0000 243.5000 13.22550000  3946
GW2_20_15
1 93395U 26001OE  26093.00000000  .00000000  00000-0  00000-0 0  9998
2 93395  86.5000 171.0000 0000000   0.0000 261.5000 13.22550000  3958
GW2_20_16
1 93396U 26001OF  26093.00000000  .00000000  00000-0  00000-0 0  9999
2 93396  86.5000 171.0000 0000000   0.0000 279.5000 13.22550000  3969
GW2_20_17
1 93397U 26001OG  26093.00000000  .00000000  00000-0  00000-0 0  9990
2 93397  86.5000 171.0000 0000000   0.0000 297.5000 13.22550000  3971
GW2_20_18
1 93398U 26001OH  26093.00000000  .00000000  00000-0  00000-0 0  9991
2 93398  86.5000 171.0000 0000000   0.0000 315.5000 13.22550000  3984
GW2_20_19
1 93399U 26001OI  26093.00000000  .00000000  00000-0  00000-0 0  9992
2 93399  86.5000 171.0000 0000000   0.0000 333.5000 13.22550000  3996
GW2_20_20
1 93400U 26001OJ  26093.00000000  .00000000  00000-0  00000-0 0  9995
2 93400  86.5000 171.0000 0000000   0.0000 351.5000 13.22550000  4002
