GW2_1_1
1 92001U 26002A   26093.00000000  .00000000  00000-0  00000-0 0  9992
2 92001  86.5000   0.0000 0000000   0.0000   0.0000 13.22550000    12
GW2_1_2
1 92002U 26002B   26093.00000000  .00000000  00000-0  00000-0 0  9993
2 92002  86.5000   0.0000 0000000   0.0000  18.0000 13.22550000    23
GW2_1_3
1 92003U 26002C   26093.00000000  .00000000  00000-0  00000-0 0  9994
2 92003  86.5000   0.0000 0000000   0.0000  36.0000 13.22550000    35
GW2_1_4
1 92004U 26002D   26093.00000000  .00000000  00000-0  00000-0 0  9995
2 92004  86.5000   0.0000 0000000   0.0000  54.0000 13.22550000    47
GW2_1_5
1 92005U 26002E   26093.00000000  .00000000  00000-0  00000-0 0  9996
2 92005  86.5000   0.0000 0000000   0.0000  72.0000 13.22550000    59
GW2_1_6
1 92006U 26002F   26093.00000000  .00000000  00000-0  00000-0 0  9997
2 92006  86.5000   0.0000 0000000   0.0000  90.0000 13.22550000    61
GW2_1_7
1 92007U 26002G   26093.00000000  .00000000  00000-0  00000-0 0  9998
2 92007  86.5000   0.0000 0000000   0.0000 108.0000 13.22550000    73
GW2_1_8
1 92008U 26002H   26093.00000000  .00000000  00000-0  00000-0 0  9999
2 92008  86.5000   0.0000 0000000   0.0000 126.0000 13.22550000    85
GW2_1_9
1 92009U 26002I   26093.00000000  .00000000  00000-0  00000-0 0  9990
2 92009  86.5000   0.0000 0000000   0.0000 144.0000 13.22550000    97
GW2_1_10
1 92010U 26002J   26093.00000000  .00000000  00000-0  00000-0 0  9992
2 92010  86.5000   0.0000 0000000   0.0000 162.0000 13.22550000   101
GW2_1_11
1 92011U 26002K   26093.00000000  .00000000  00000-0  00000-0 0  9993
2 92011  86.5000   0.0000 0000000   0.0000 180.0000 13.22550000   113
GW2_1_12
1 92012U 26002L   26093.00000000  .00000000  00000-0  00000-0 0  9994
2 92012  86.5000   0.0000 0000000   0.0000 198.0000 13.22550000   124
GW2_1_13
1 92013U 26002M   26093.00000000  .00000000  00000-0  00000-0 0  9995
2 92013  86.5000   0.0000 0000000   0.0000 216.0000 13.22550000   137
GW2_1_14
1 92014U 26002N   26093.00000000  .00000000  00000-0  00000-0 0  9996
2 92014  86.5000   0.0000 0000000   0.0000 234.0000 13.22550000   149
GW2_1_15
1 92015U 26002O   26093.00000000  .00000000  00000-0  00000-0 0  9997
2 92015  86.5000   0.0000 0000000   0.0000 252.0000 13.22550000   151
GW2_1_16
1 92016U 26002P   26093.00000000  .00000000  00000-0  00000-0 0  9998
2 92016  86.5000   0.0000 0000000   0.0000 270.0000 13.22550000   163
GW2_1_17
1 92017U 26002Q   26093.00000000  .00000000  00000-0  00000-0 0  9999
2 92017  86.5000   0.0000 0000000   0.0000 288.0000 13.22550000   174
GW2_1_18
1 92018U 26002R   26093.00000000  .00000000  00000-0  00000-0 0  9990
2 92018  86.5000   0.0000 0000000   0.0000 306.0000 13.22550000   187
GW2_1_19
1 92019U 26002S   26093.00000000  .00000000  00000-0  00000-0 0  9991
2 92019  86.5000   0.0000 0000000   0.0000 324.0000 13.22550000   199
GW2_1_20
1 92020U 26002T   26093.00000000  .00000000  00000-0  00000-0 0  9993
2 92020  86.5000   0.0000 0000000   0.0000 342.0000 13.22550000   203
GW2_2_1
1 92021U 26002U   26093.00000000  .00000000  00000-0  00000-0 0  9994
2 92021  86.5000  18.0000 0000000   0.0000   1.8000 13.22550000   214
GW2_2_2
1 92022U 26002V   26093.00000000  .00000000  00000-0  00000-0 0  9995
2 92022  86.5000  18.0000 0000000   0.0000  19.8000 13.22550000   225
GW2_2_3
1 92023U 26002W   26093.00000000  .00000000  00000-0  00000-0 0  9996
2 92023  86.5000  18.0000 0000000   0.0000  37.8000 13.22550000   237
GW2_2_4
1 92024U 26002X   26093.00000000  .00000000  00000-0  00000-0 0  9997
2 92024  86.5000  18.0000 0000000   0.0000  55.8000 13.22550000   249
GW2_2_5
1 92025U 26002Y   26093.00000000  .00000000  00000-0  00000-0 0  9998
2 92025  86.5000  18.0000 0000000   0.0000  73.8000 13.22550000   251
GW2_2_6
1 92026U 26002Z   26093.00000000  .00000000  00000-0  00000-0 0  9999
2 92026  86.5000  18.0000 0000000   0.0000  91.8000 13.22550000   263
GW2_2_7
1 92027U 26002AA  26093.00000000  .00000000  00000-0  00000-0 0  9990
2 92027  86.5000  18.0000 0000000   0.0000 109.8000 13.22550000   275
GW2_2_8
1 92028U 26002AB  26093.00000000  .00000000  00000-0  00000-0 0  9991
2 92028  86.5000  18.0000 0000000   0.0000 127.8000 13.22550000   287
GW2_2_9
1 92029U 26002AC  26093.00000000  .00000000  00000-0  00000-0 0  9992
2 92029  86.5000  18.0000 0000000   0.0000 145.8000 13.22550000   299
GW2_2_10
1 92030U 26002AD  26093.00000000  .00000000  00000-0  00000-0 0  9994
2 92030  86.5000  18.0000 0000000   0.0000 163.8000 13.22550000   303
GW2_2_11
1 92031U 26002AE  26093.00000000  .00000000  00000-0  00000-0 0  9995
2 92031  86.5000  18.0000 0000000   0.0000 181.8000 13.22550000   315
GW2_2_12
1 92032U 26002AF  26093.00000000  .00000000  00000-0  00000-0 0  9996
2 92032  86.5000  18.0000 0000000   0.0000 199.8000 13.22550000   326
GW2_2_13
1 92033U 26002AG  26093.00000000  .00000000  00000-0  00000-0 0  9997
2 92033  86.5000  18.0000 0000000   0.0000 217.8000 13.22550000   339
GW2_2_14
1 92034U 26002AH  26093.00000000  .00000000  00000-0  00000-0 0  9998
2 92034  86.5000  18.0000 0000000   0.0000 235.8000 13.22550000   341
GW2_2_15
1 92035U 26002AI  26093.00000000  .00000000  00000-0  00000-0 0  9999
2 92035  86.5000  18.0000 0000000   0.0000 253.8000 13.22550000   353
GW2_2_16
1 92036U 26002AJ  26093.00000000  .00000000  00000-0  00000-0 0  9990
2 92036  86.5000  18.0000 0000000   0.0000 271.8000 13.22550000   365
GW2_2_17
1 92037U 26002AK  26093.00000000  .00000000  00000-0  00000-0 0  9991
2 92037  86.5000  18.0000 0000000   0.0000 289.8000 13.22550000   376
GW2_2_18
1 92038U 26002AL  26093.00000000  .00000000  00000-0  00000-0 0  9992
2 92038  86.5000  18.0000 0000000   0.0000 307.8000 13.22550000   389
GW2_2_19
1 92039U 26002AM  26093.00000000  .00000000  00000-0  00000-0 0  9993
2 92039  86.5000  18.0000 0000000   0.0000 325.8000 13.22550000   391
GW2_2_20
1 92040U 26002AN  26093.00000000  .00000000  00000-0  00000-0 0  9995
2 92040  86.5000  18.0000 0000000   0.0000 343.8000 13.22550000   405
GW2_3_1
1 92041U 26002AO  26093.00000000  .00000000  00000-0  00000-0 0  9996
2 92041  86.5000  36.0000 0000000   0.0000   3.6000 13.22550000   418
GW2_3_2
1 92042U 26002AP  26093.00000000  .00000000  00000-0  00000-0 0  9997
2 92042  86.5000  36.0000 0000000   0.0000  21.6000 13.22550000   420
GW2_3_3
1 92043U 26002AQ  26093.00000000  .00000000  00000-0  00000-0 0  9998
2 92043  86.5000  36.0000 0000000   0.0000  39.6000 13.22550000   431
GW2_3_4
1 92044U 26002AR  26093.00000000  .00000000  00000-0  00000-0 0  9999
2 92044  86.5000  36.0000 0000000   0.0000  57.6000 13.22550000   443
GW2_3_5
1 92045U 26002AS  26093.00000000  .00000000  00000-0  00000-0 0  9990
2 92045  86.5000  36.0000 0000000   0.0000  75.6000 13.22550000   455
GW2_3_6
1 92046U 26002AT  26093.00000000  .00000000  00000-0  00000-0 0  9991
2 92046  86.5000  36.0000 0000000   0.0000  93.6000 13.22550000   467
GW2_3_7
1 92047U 26002AU  26093.00000000  .00000000  00000-0  00000-0 0  9992
2 92047  86.5000  36.0000 0000000   0.0000 111.6000 13.22550000   470
GW2_3_8
1 92048U 26002AV  26093.00000000  .00000000  00000-0  00000-0 0  9993
2 92048  86.5000  36.0000 0000000   0.0000 129.6000 13.22550000   481
GW2_3_9
1 92049U 26002AW  26093.00000000  .00000000  00000-0  00000-0 0  9994
2 92049  86.5000  36.0000 0000000   0.0000 147.6000 13.22550000   493
GW2_3_10
1 92050U 26002AX  26093.00000000  .00000000  00000-0  00000-0 0  9996
2 92050  86.5000  36.0000 0000000   0.0000 165.6000 13.22550000   507
GW2_3_11
1 92051U 26002AY  26093.00000000  .00000000  00000-0  00000-0 0  9997
2 92051  86.5000  36.0000 0000000   0.0000 183.6000 13.22550000   519
GW2_3_12
1 92052U 26002AZ  26093.00000000  .00000000  00000-0  00000-0 0  9998
2 92052  86.5000  36.0000 0000000   0.0000 201.6000 13.22550000   522
GW2_3_13
1 92053U 26002BA  26093.00000000  .00000000  00000-0  00000-0 0  9999
2 92053  86.5000  36.0000 0000000   0.0000 219.6000 13.22550000   533
GW2_3_14
1 92054U 26002BB  26093.00000000  .00000000  00000-0  00000-0 0  9990
2 92054  86.5000  36.0000 0000000   0.0000 237.6000 13.22550000   545
GW2_3_15
1 92055U 26002BC  26093.00000000  .00000000  00000-0  00000-0 0  9991
2 92055  86.5000  36.0000 0000000   0.0000 255.6000 13.22550000   557
GW2_3_16
1 92056U 26002BD  26093.00000000  .00000000  00000-0  00000-0 0  9992
2 92056  86.5000  36.0000 0000000   0.0000 273.6000 13.22550000   569
GW2_3_17
1 92057U 26002BE  26093.00000000  .00000000  00000-0  00000-0 0  9993
2 92057  86.5000  36.0000 0000000   0.0000 291.6000 13.22550000   571
GW2_3_18
1 92058U 26002BF  26093.00000000  .00000000  00000-0  00000-0 0  9994
2 92058  86.5000  36.0000 0000000   0.0000 309.6000 13.22550000   583
GW2_3_19
1 92059U 26002BG  26093.00000000  .00000000  00000-0  00000-0 0  9995
2 92059  86.5000  36.0000 0000000   0.0000 327.6000 13.22550000   595
GW2_3_20
1 92060U 26002BH  26093.00000000  .00000000  00000-0  00000-0 0  9997
2 92060  86.5000  36.0000 0000000   0.0000 345.6000 13.22550000   609
GW2_4_1
1 92061U 26002BI  26093.00000000  .00000000  00000-0  00000-0 0  9998
2 92061  86.5000  54.0000 0000000   0.0000   5.4000 13.22550000   612
GW2_4_2
1 92062U 26002BJ  26093.00000000  .00000000  00000-0  00000-0 0  9999
2 92062  86.5000  54.0000 0000000   0.0000  23.4000 13.22550000   624
GW2_4_3
1 92063U 26002BK  26093.00000000  .00000000  00000-0  00000-0 0  9990
2 92063  86.5000  54.0000 0000000   0.0000  41.4000 13.22550000   636
GW2_4_4
1 92064U 26002BL  26093.00000000  .00000000  00000-0  00000-0 0  9991
2 92064  86.5000  54.0000 0000000   0.0000  59.4000 13.22550000   647
GW2_4_5
1 92065U 26002BM  26093.00000000  .00000000  00000-0  00000-0 0  9992
2 92065  86.5000  54.0000 0000000   0.0000  77.4000 13.22550000   659
GW2_4_6
1 92066U 26002BN  26093.00000000  .00000000  00000-0  00000-0 0  9993
2 92066  86.5000  54.0000 0000000   0.0000  95.4000 13.22550000   661
GW2_4_7
1 92067U 26002BO  26093.00000000  .00000000  00000-0  00000-0 0  9994
2 92067  86.5000  54.0000 0000000   0.0000 113.4000 13.22550000   674
GW2_4_8
1 92068U 26002BP  26093.00000000  .00000000  00000-0  00000-0 0  9995
2 92068  86.5000  54.0000 0000000   0.0000 131.4000 13.22550000   686
GW2_4_9
1 92069U 26002BQ  26093.00000000  .00000000  00000-0  00000-0 0  9996
2 92069  86.5000  54.0000 0000000   0.0000 149.4000 13.22550000   697
GW2_4_10
1 92070U 26002BR  26093.00000000  .00000000  00000-0  00000-0 0  9998
2 92070  86.5000  54.0000 0000000   0.0000 167.4000 13.22550000   701
GW2_4_11
1 92071U 26002BS  26093.00000000  .00000000  00000-0  00000-0 0  9999
2 92071  86.5000  54.0000 0000000   0.0000 185.4000 13.22550000   713
GW2_4_12
1 92072U 26002BT  26093.00000000  .00000000  00000-0  00000-0 0  9990
2 92072  86.5000  54.0000 0000000   0.0000 203.4000 13.22550000   726
GW2_4_13
1 92073U 26002BU  26093.00000000  .00000000  00000-0  00000-0 0  9991
2 92073  86.5000  54.0000 0000000   0.0000 221.4000 13.22550000   738
GW2_4_14
1 92074U 26002BV  26093.00000000  .00000000  00000-0  00000-0 0  9992
2 92074  86.5000  54.0000 0000000   0.0000 239.4000 13.22550000   749
GW2_4_15
1 92075U 26002BW  26093.00000000  .00000000  00000-0  00000-0 0  9993
2 92075  86.5000  54.0000 0000000   0.0000 257.4000 13.22550000   751
GW2_4_16
1 92076U 26002BX  26093.00000000  .00000000  00000-0  00000-0 0  9994
2 92076  86.5000  54.0000 0000000   0.0000 275.4000 13.22550000   763
GW2_4_17
1 92077U 26002BY  26093.00000000  .00000000  00000-0  00000-0 0  9995
2 92077  86.5000  54.0000 0000000   0.0000 293.4000 13.22550000   775
GW2_4_18
1 92078U 26002BZ  26093.00000000  .00000000  00000-0  00000-0 0  9996
2 92078  86.5000  54.0000 0000000   0.0000 311.4000 13.22550000   788
GW2_4_19
1 92079U 26002CA  26093.00000000  .00000000  00000-0  00000-0 0  9997
2 92079  86.5000  54.0000 0000000   0.0000 329.4000 13.22550000   799
GW2_4_20
1 92080U 26002CB  26093.00000000  .00000000  00000-0  00000-0 0  9999
2 92080  86.5000  54.0000 0000000   0.0000 347.4000 13.22550000   803
GW2_5_1
1 92081U 26002CC  26093.00000000  .00000000  00000-0  00000-0 0  9990
2 92081  86.5000  72.0000 0000000   0.0000   7.2000 13.22550000   816
GW2_5_2
1 92082U 26002CD  26093.00000000  .00000000  00000-0  00000-0 0  9991
2 92082  86.5000  72.0000 0000000   0.0000  25.2000 13.22550000   828
GW2_5_3
1 92083U 26002CE  26093.00000000  .00000000  00000-0  00000-0 0  9992
2 92083  86.5000  72.0000 0000000   0.0000  43.2000 13.22550000   830
GW2_5_4
1 92084U 26002CF  26093.00000000  .00000000  00000-0  00000-0 0  9993
2 92084  86.5000  72.0000 0000000   0.0000  61.2000 13.22550000   842
GW2_5_5
1 92085U 26002CG  26093.00000000  .00000000  00000-0  00000-0 0  9994
2 92085  86.5000  72.0000 0000000   0.0000  79.2000 13.22550000   853
GW2_5_6
1 92086U 26002CH  26093.00000000  .00000000  00000-0  00000-0 0  9995
2 92086  86.5000  72.0000 0000000   0.0000  97.2000 13.22550000   865
GW2_5_7
1 92087U 26002CI  26093.00000000  .00000000  00000-0  00000-0 0  9996
2 92087  86.5000  72.0000 0000000   0.0000 115.2000 13.22550000   878
GW2_5_8
1 92088U 26002CJ  26093.00000000  .00000000  00000-0  00000-0 0  9997
2 92088  86.5000  72.0000 0000000   0.0000 133.2000 13.22550000   880
GW2_5_9
1 92089U 26002CK  26093.00000000  .00000000  00000-0  00000-0 0  9998
2 92089  86.5000  72.0000 0000000   0.0000 151.2000 13.22550000   892
GW2_5_10
1 92090U 26002CL  26093.00000000  .00000000  00000-0  00000-0 0  9990
2 92090  86.5000  72.0000 0000000   0.0000 169.2000 13.22550000   905
GW2_5_11
1 92091U 26002CM  26093.00000000  .00000000  00000-0  00000-0 0  9991
2 92091  86.5000  72.0000 0000000   0.0000 187.2000 13.22550000   917
GW2_5_12
1 92092U 26002CN  26093.00000000  .00000000  00000-0  00000-0 0  9992
2 92092  86.5000  72.0000 0000000   0.0000 205.2000 13.22550000   920
GW2_5_13
1 92093U 26002CO  26093.00000000  .00000000  00000-0  00000-0 0  9993
2 92093  86.5000  72.0000 0000000   0.0000 223.2000 13.22550000   932
GW2_5_14
1 92094U 26002CP  26093.00000000  .00000000  00000-0  00000-0 0  9994
2 92094  86.5000  72.0000 0000000   0.0000 241.2000 13.22550000   944
GW2_5_15
1 92095U 26002CQ  26093.00000000  .00000000  00000-0  00000-0 0  9995
2 92095  86.5000  72.0000 0000000   0.0000 259.2000 13.22550000   955
GW2_5_16
1 92096U 26002CR  26093.00000000  .00000000  00000-0  00000-0 0  9996
2 92096  86.5000  72.0000 0000000   0.0000 277.2000 13.22550000   967
GW2_5_17
1 92097U 26002CS  26093.00000000  .00000000  00000-0  00000-0 0  9997
2 92097  86.5000  72.0000 0000000   0.0000 295.2000 13.22550000   979
GW2_5_18
1 92098U 26002CT  26093.00000000  .00000000  00000-0  00000-0 0  9998
2 92098  86.5000  72.0000 0000000   0.0000 313.2000 13.22550000   982
GW2_5_19
1 92099U 26002CU  26093.00000000  .00000000  00000-0  00000-0 0  9999
2 92099  86.5000  72.0000 0000000   0.0000 331.2000 13.22550000   994
GW2_5_20
1 92100U 26002CV  26093.00000000  .00000000  00000-0  00000-0 0  9992
2 92100  86.5000  72.0000 0000000   0.0000 349.2000 13.22550000  1009
GW2_6_1
1 92101U 26002CW  26093.00000000  .00000000  00000-0  00000-0 0  9993
2 92101  86.5000  90.0000 0000000   0.0000   9.0000 13.22550000  1012
GW2_6_2
1 92102U 26002CX  26093.00000000  .00000000  00000-0  00000-0 0  9994
2 92102  86.5000  90.0000 0000000   0.0000  27.0000 13.22550000  1024
GW2_6_3
1 92103U 26002CY  26093.00000000  .00000000  00000-0  00000-0 0  9995
2 92103  86.5000  90.0000 0000000   0.0000  45.0000 13.22550000  1036
GW2_6_4
1 92104U 26002CZ  26093.00000000  .00000000  00000-0  00000-0 0  9996
2 92104  86.5000  90.0000 0000000   0.0000  63.0000 13.22550000  1048
GW2_6_5
1 92105U 26002DA  26093.00000000  .00000000  00000-0  00000-0 0  9997
2 92105  86.5000  90.0000 0000000   0.0000  81.0000 13.22550000  1050
GW2_6_6
1 92106U 26002DB  26093.00000000  .00000000  00000-0  00000-0 0  9998
2 92106  86.5000  90.0000 0000000   0.0000  99.0000 13.22550000  1061
GW2_6_7
1 92107U 26002DC  26093.00000000  .00000000  00000-0  00000-0 0  9999
2 92107  86.5000  90.0000 0000000   0.0000 117.0000 13.22550000  1074
GW2_6_8
1 92108U 26002DD  26093.00000000  .00000000  00000-0  00000-0 0  9990
2 92108  86.5000  90.0000 0000000   0.0000 135.0000 13.22550000  1086
GW2_6_9
1 92109U 26002DE  26093.00000000  .00000000  00000-0  00000-0 0  9991
2 92109  86.5000  90.0000 0000000   0.0000 153.0000 13.22550000  1098
GW2_6_10
1 92110U 26002DF  26093.00000000  .00000000  00000-0  00000-0 0  9993
2 92110  86.5000  90.0000 0000000   0.0000 171.0000 13.22550000  1102
GW2_6_11
1 92111U 26002DG  26093.00000000  .00000000  00000-0  00000-0 0  9994
2 92111  86.5000  90.0000 0000000   0.0000 189.0000 13.22550000  1113
GW2_6_12
1 92112U 26002DH  26093.00000000  .00000000  00000-0  00000-0 0  9995
2 92112  86.5000  90.0000 0000000   0.0000 207.0000 13.22550000  1126
GW2_6_13
1 92113U 26002DI  26093.00000000  .00000000  00000-0  00000-0 0  9996
2 92113  86.5000  90.0000 0000000   0.0000 225.0000 13.22550000  1138
GW2_6_14
1 92114U 26002DJ  26093.00000000  .00000000  00000-0  00000-0 0  9997
2 92114  86.5000  90.0000 0000000   0.0000 243.0000 13.22550000  1140
GW2_6_15
1 92115U 26002DK  26093.00000000  .00000000  00000-0  00000-0 0  9998
2 92115  86.5000  90.0000 0000000   0.0000 261.0000 13.22550000  1152
GW2_6_16
1 92116U 26002DL  26093.00000000  .00000000  00000-0  00000-0 0  9999
2 92116  86.5000  90.0000 0000000   0.0000 279.0000 13.22550000  1163
GW2_6_17
1 92117U 26002DM  26093.00000000  .00000000  00000-0  00000-0 0  9990
2 92117  86.5000  90.0000 0000000   0.0000 297.0000 13.22550000  1175
GW2_6_18
1 92118U 26002DN  26093.00000000  .00000000  00000-0  00000-0 0  9991
2 92118  86.5000  90.0000 0000000   0.0000 315.0000 13.22550000  1188
GW2_6_19
1 92119U 26002DO  26093.00000000  .00000000  00000-0  00000-0 0  9992
2 92119  86.5000  90.0000 0000000   0.0000 333.0000 13.22550000  1190
GW2_6_20
1 92120U 26002DP  26093.00000000  .00000000  00000-0  00000-0 0  9994
2 92120  86.5000  90.0000 0000000   0.0000 351.0000 13.22550000  1204
GW2_7_1
1 92121U 26002DQ  26093.00000000  .00000000  00000-0  00000-0 0  9995
2 92121  86.5000 108.0000 0000000   0.0000  10.8000 13.22550000  1216
GW2_7_2
1 92122U 26002DR  26093.00000000  .00000000  00000-0  00000-0 0  9996
2 92122  86.5000 108.0000 0000000   0.0000  28.8000 13.22550000  1227
GW2_7_3
1 92123U 26002DS  26093.00000000  .00000000  00000-0  00000-0 0  9997
2 92123  86.5000 108.0000 0000000   0.0000  46.8000 13.22550000  1239
GW2_7_4
1 92124U 26002DT  26093.00000000  .00000000  00000-0  00000-0 0  9998
2 92124  86.5000 108.0000 0000000   0.0000  64.8000 13.22550000  1241
GW2_7_5
1 92125U 26002DU  26093.00000000  .00000000  00000-0  00000-0 0  9999
2 92125  86.5000 108.0000 0000000   0.0000  82.8000 13.22550000  1253
GW2_7_6
1 92126U 26002DV  26093.00000000  .00000000  00000-0  00000-0 0  9990
2 92126  86.5000 108.0000 0000000   0.0000 100.8000 13.22550000  1266
GW2_7_7
1 92127U 26002DW  26093.00000000  .00000000  00000-0  00000-0 0  9991
2 92127  86.5000 108.0000 0000000   0.0000 118.8000 13.22550000  1277
GW2_7_8
1 92128U 26002DX  26093.00000000  .00000000  00000-0  00000-0 0  9992
2 92128  86.5000 108.0000 0000000   0.0000 136.8000 13.22550000  1289
GW2_7_9
1 92129U 26002DY  26093.00000000  .00000000  00000-0  00000-0 0  9993
2 92129  86.5000 108.0000 0000000   0.0000 154.8000 13.22550000  1291
GW2_7_10
1 92130U 26002DZ  26093.00000000  .00000000  00000-0  00000-0 0  9995
2 92130  86.5000 108.0000 0000000   0.0000 172.8000 13.22550000  1305
GW2_7_11
1 92131U 26002EA  26093.00000000  .00000000  00000-0  00000-0 0  9996
2 92131  86.5000 108.0000 0000000   0.0000 190.8000 13.22550000  1317
GW2_7_12
1 92132U 26002EB  26093.00000000  .00000000  00000-0  00000-0 0  9997
2 92132  86.5000 108.0000 0000000   0.0000 208.8000 13.22550000  1329
GW2_7_13
1 92133U 26002EC  26093.00000000  .00000000  00000-0  00000-0 0  9998
2 92133  86.5000 108.0000 0000000   0.0000 226.8000 13.22550000  1331
GW2_7_14
1 92134U 26002ED  26093.00000000  .00000000  00000-0  00000-0 0  9999
2 92134  86.5000 108.0000 0000000   0.0000 244.8000 13.22550000  1343
GW2_7_15
1 92135U 26002EE  26093.00000000  .00000000  00000-0  00000-0 0  9990
2 92135  86.5000 108.0000 0000000   0.0000 262.8000 13.22550000  1355
GW2_7_16
1 92136U 26002EF  26093.00000000  .00000000  00000-0  00000-0 0  9991
2 92136  86.5000 108.0000 0000000   0.0000 280.8000 13.22550000  1367
GW2_7_17
1 92137U 26002EG  26093.00000000  .00000000  00000-0  00000-0 0  9992
2 92137  86.5000 108.0000 0000000   0.0000 298.8000 13.22550000  1378
GW2_7_18
1 92138U 26002EH  26093.00000000  .00000000  00000-0  00000-0 0  9993
2 92138  86.5000 108.0000 0000000   0.0000 316.8000 13.22550000  1381
GW2_7_19
1 92139U 26002EI  26093.00000000  .00000000  00000-0  00000-0 0  9994
2 92139  86.5000 108.0000 0000000   0.0000 334.8000 13.22550000  1393
GW2_7_20
1 92140U 26002EJ  26093.00000000  .00000000  00000-0  00000-0 0  9996
2 92140  86.5000 108.0000 0000000   0.0000 352.8000 13.22550000  1407
GW2_8_1
1 92141U 26002EK  26093.00000000  .00000000  00000-0  00000-0 0  9997
2 92141  86.5000 126.0000 0000000   0.0000  12.6000 13.22550000  1410
GW2_8_2
1 92142U 26002EL  26093.00000000  .00000000  00000-0  00000-0 0  9998
2 92142  86.5000 126.0000 0000000   0.0000  30.6000 13.22550000  1422
GW2_8_3
1 92143U 26002EM  26093.00000000  .00000000  00000-0  00000-0 0  9999
2 92143  86.5000 126.0000 0000000   0.0000  48.6000 13.22550000  1433
GW2_8_4
1 92144U 26002EN  26093.00000000  .00000000  00000-0  00000-0 0  9990
2 92144  86.5000 126.0000 0000000   0.0000  66.6000 13.22550000  1445
GW2_8_5
1 92145U 26002EO  26093.00000000  .00000000  00000-0  00000-0 0  9991
2 92145  86.5000 126.0000 0000000   0.0000  84.6000 13.22550000  1457
GW2_8_6
1 92146U 26002EP  26093.00000000  .00000000  00000-0  00000-0 0  9992
2 92146  86.5000 126.0000 0000000   0.0000 102.6000 13.22550000  1460
GW2_8_7
1 92147U 26002EQ  26093.00000000  .00000000  00000-0  00000-0 0  9993
2 92147  86.5000 126.0000 0000000   0.0000 120.6000 13.22550000  1472
GW2_8_8
1 92148U 26002ER  26093.00000000  .00000000  00000-0  00000-0 0  9994
2 92148  86.5000 126.0000 0000000   0.0000 138.6000 13.22550000  1483
GW2_8_9
1 92149U 26002ES  26093.00000000  .00000000  00000-0  00000-0 0  9995
2 92149  86.5000 126.0000 0000000   0.0000 156.6000 13.22550000  1495
GW2_8_10
1 92150U 26002ET  26093.00000000  .00000000  00000-0  00000-0 0  9997
2 92150  86.5000 126.0000 0000000   0.0000 174.6000 13.22550000  1509
GW2_8_11
1 92151U 26002EU  26093.00000000  .00000000  00000-0  00000-0 0  9998
2 92151  86.5000 126.0000 0000000   0.0000 192.6000 13.22550000  1511
GW2_8_12
1 92152U 26002EV  26093.00000000  .00000000  00000-0  00000-0 0  9999
2 92152  86.5000 126.0000 0000000   0.0000 210.6000 13.22550000  1524
GW2_8_13
1 92153U 26002EW  26093.00000000  .00000000  00000-0  00000-0 0  9990
2 92153  86.5000 126.0000 0000000   0.0000 228.6000 13.22550000  1535
GW2_8_14
1 92154U 26002EX  26093.00000000  .00000000  00000-0  00000-0 0  9991
2 92154  86.5000 126.0000 0000000   0.0000 246.6000 13.22550000  1547
GW2_8_15
1 92155U 26002EY  26093.00000000  .00000000  00000-0  00000-0 0  9992
2 92155  86.5000 126.0000 0000000   0.0000 264.6000 13.22550000  1559
GW2_8_16
1 92156U 26002EZ  26093.00000000  .00000000  00000-0  00000-0 0  9993
2 92156  86.5000 126.0000 0000000   0.0000 282.6000 13.22550000  1561
GW2_8_17
1 92157U 26002FA  26093.00000000  .00000000  00000-0  00000-0 0  9994
2 92157  86.5000 126.0000 0000000   0.0000 300.6000 13.22550000  1574
GW2_8_18
1 92158U 26002FB  26093.00000000  .00000000  00000-0  00000-0 0  9995
2 92158  86.5000 126.0000 0000000   0.0000 318.6000 13.22550000  1585
GW2_8_19
1 92159U 26002FC  26093.00000000  .00000000  00000-0  00000-0 0  9996
2 92159  86.5000 126.0000 0000000   0.0000 336.6000 13.22550000  1597
GW2_8_20
1 92160U 26002FD  26093.00000000  .00000000  00000-0  00000-0 0  9998
2 92160  86.5000 126.0000 0000000   0.0000 354.6000 13.22550000  1601
GW2_9_1
1 92161U 26002FE  26093.00000000  .00000000  00000-0  00000-0 0  9999
2 92161  86.5000 144.0000 0000000   0.0000  14.4000 13.22550000  1614
GW2_9_2
1 92162U 26002FF  26093.00000000  .00000000  00000-0  00000-0 0  9990
2 92162  86.5000 144.0000 0000000   0.0000  32.4000 13.22550000  1626
GW2_9_3
1 92163U 26002FG  26093.00000000  .00000000  00000-0  00000-0 0  9991
2 92163  86.5000 144.0000 0000000   0.0000  50.4000 13.22550000  1638
GW2_9_4
1 92164U 26002FH  26093.00000000  .00000000  00000-0  00000-0 0  9992
2 92164  86.5000 144.0000 0000000   0.0000  68.4000 13.22550000  1649
GW2_9_5
1 92165U 26002FI  26093.00000000  .00000000  00000-0  00000-0 0  9993
2 92165  86.5000 144.0000 0000000   0.0000  86.4000 13.22550000  1651
GW2_9_6
1 92166U 26002FJ  26093.00000000  .00000000  00000-0  00000-0 0  9994
2 92166  86.5000 144.0000 0000000   0.0000 104.4000 13.22550000  1664
GW2_9_7
1 92167U 26002FK  26093.00000000  .00000000  00000-0  00000-0 0  9995
2 92167  86.5000 144.0000 0000000   0.0000 122.4000 13.22550000  1676
GW2_9_8
1 92168U 26002FL  26093.00000000  .00000000  00000-0  00000-0 0  9996
2 92168  86.5000 144.0000 0000000   0.0000 140.4000 13.22550000  1688
GW2_9_9
1 92169U 26002FM  26093.00000000  .00000000  00000-0  00000-0 0  9997
2 92169  86.5000 144.0000 0000000   0.0000 158.4000 13.22550000  1699
GW2_9_10
1 92170U 26002FN  26093.00000000  .00000000  00000-0  00000-0 0  9999
2 92170  86.5000 144.0000 0000000   0.0000 176.4000 13.22550000  1703
GW2_9_11
1 92171U 26002FO  26093.00000000  .00000000  00000-0  00000-0 0  9990
2 92171  86.5000 144.0000 0000000   0.0000 194.4000 13.22550000  1715
GW2_9_12
1 92172U 26002FP  26093.00000000  .00000000  00000-0  00000-0 0  9991
2 92172  86.5000 144.0000 0000000   0.0000 212.4000 13.22550000  1728
GW2_9_13
1 92173U 26002FQ  26093.00000000  .00000000  00000-0  00000-0 0  9992
2 92173  86.5000 144.0000 0000000   0.0000 230.4000 13.22550000  1730
GW2_9_14
1 92174U 26002FR  26093.00000000  .00000000  00000-0  00000-0 0  9993
2 92174  86.5000 144.0000 0000000   0.0000 248.4000 13.22550000  1741
GW2_9_15
1 92175U 26002FS  26093.00000000  .00000000  00000-0  00000-0 0  9994
2 92175  86.5000 144.0000 0000000   0.0000 266.4000 13.22550000  1753
GW2_9_16
1 92176U 26002FT  26093.00000000  .00000000  00000-0  00000-0 0  9995
2 92176  86.5000 144.0000 0000000   0.0000 284.4000 13.22550000  1765
GW2_9_17
1 92177U 26002FU  26093.00000000  .00000000  00000-0  00000-0 0  9996
2 92177  86.5000 144.0000 0000000   0.0000 302.4000 13.22550000  1778
GW2_9_18
1 92178U 26002FV  26093.00000000  .00000000  00000-0  00000-0 0  9997
2 92178  86.5000 144.0000 0000000   0.0000 320.4000 13.22550000  1780
GW2_9_19
1 92179U 26002FW  26093.00000000  .00000000  00000-0  00000-0 0  9998
2 92179  86.5000 144.0000 0000000   0.0000 338.4000 13.22550000  1791
GW2_9_20
1 92180U 26002FX  26093.00000000  .00000000  00000-0  00000-0 0  9990
2 92180  86.5000 144.0000 0000000   0.0000 356.4000 13.22550000  1805
GW2_10_1
1 92181U 26002FY  26093.00000000  .00000000  00000-0  00000-0 0  9991
2 92181  86.5000 162.0000 0000000   0.0000  16.2000 13.22550000  1818
GW2_10_2
1 92182U 26002FZ  26093.00000000  .00000000  00000-0  00000-0 0  9992
2 92182  86.5000 162.0000 0000000   0.0000  34.2000 13.22550000  1820
GW2_10_3
1 92183U 26002GA  26093.00000000  .00000000  00000-0  00000-0 0  9993
2 92183  86.5000 162.0000 0000000   0.0000  52.2000 13.22550000  1832
GW2_10_4
1 92184U 26002GB  26093.00000000  .00000000  00000-0  00000-0 0  9994
2 92184  86.5000 162.0000 0000000   0.0000  70.2000 13.22550000  1844
GW2_10_5
1 92185U 26002GC  26093.00000000  .00000000  00000-0  00000-0 0  9995
2 92185  86.5000 162.0000 0000000   0.0000  88.2000 13.22550000  1855
GW2_10_6
1 92186U 26002GD  26093.00000000  .00000000  00000-0  00000-0 0  9996
2 92186  86.5000 162.0000 0000000   0.0000 106.2000 13.22550000  1868
GW2_10_7
1 92187U 26002GE  26093.00000000  .00000000  00000-0  00000-0 0  9997
2 92187  86.5000 162.0000 0000000   0.0000 124.2000 13.22550000  1870
GW2_10_8
1 92188U 26002GF  26093.00000000  .00000000  00000-0  00000-0 0  9998
2 92188  86.5000 162.0000 0000000   0.0000 142.2000 13.22550000  1882
GW2_10_9
1 92189U 26002GG  26093.00000000  .00000000  00000-0  00000-0 0  9999
2 92189  86.5000 162.0000 0000000   0.0000 160.2000 13.22550000  1894
GW2_10_10
1 92190U 26002GH  26093.00000000  .00000000  00000-0  00000-0 0  9991
2 92190  86.5000 162.0000 0000000   0.0000 178.2000 13.22550000  1907
GW2_10_11
1 92191U 26002GI  26093.00000000  .00000000  00000-0  00000-0 0  9992
2 92191  86.5000 162.0000 0000000   0.0000 196.2000 13.22550000  1919
GW2_10_12
1 92192U 26002GJ  26093.00000000  .00000000  00000-0  00000-0 0  9993
2 92192  86.5000 162.0000 0000000   0.0000 214.2000 13.22550000  1922
GW2_10_13
1 92193U 26002GK  26093.00000000  .00000000  00000-0  00000-0 0  9994
2 92193  86.5000 162.0000 0000000   0.0000 232.2000 13.22550000  1934
GW2_10_14
1 92194U 26002GL  26093.00000000  .00000000  00000-0  00000-0 0  9995
2 92194  86.5000 162.0000 0000000   0.0000 250.2000 13.22550000  1946
GW2_10_15
1 92195U 26002GM  26093.00000000  .00000000  00000-0  00000-0 0  9996
2 92195  86.5000 162.0000 0000000   0.0000 268.2000 13.22550000  1957
GW2_10_16
1 92196U 26002GN  26093.00000000  .00000000  00000-0  00000-0 0  9997
2 92196  86.5000 162.0000 0000000   0.0000 286.2000 13.22550000  1969
GW2_10_17
1 92197U 26002GO  26093.00000000  .00000000  00000-0  00000-0 0  9998
2 92197  86.5000 162.0000 0000000   0.0000 304.2000 13.22550000  1972
GW2_10_18
1 92198U 26002GP  26093.00000000  .00000000  00000-0  00000-0 0  9999
2 92198  86.5000 162.0000 0000000   0.0000 322.2000 13.22550000  1984
GW2_10_19
1 92199U 26002GQ  26093.00000000  .00000000  00000-0  00000-0 0  9990
2 92199  86.5000 162.0000 0000000   0.0000 340.2000 13.22550000  1996
GW2_10_20
1 92200U 26002GR  26093.00000000  .00000000  00000-0  00000-0 0  9993
2 92200  86.5000 162.0000 0000000   0.0000 358.2000 13.22550000  2001
GW2_GEO
1 92201U 26002GS  26093.00000000  .00000000  00000-0  00000-0 0  9994
2 92201   0.0500 296.3000 0001000   0.0000   0.0000 1.00270000    013
