SIM_SAT_1_1
1 91001U 26001A   26093.00000000  .00000000  00000-0  00000-0 0  9990
2 91001  50.0000   0.0000 0000000   0.0000   0.0000 14.09232290    11
SIM_SAT_1_2
1 91002U 26001B   26093.00000000  .00000000  00000-0  00000-0 0  9991
2 91002  50.0000   0.0000 0000000   0.0000  45.0000 14.09232290    22
SIM_SAT_1_3
1 91003U 26001C   26093.00000000  .00000000  00000-0  00000-0 0  9992
2 91003  50.0000   0.0000 0000000   0.0000  90.0000 14.09232290    34
SIM_SAT_1_4
1 91004U 26001D   26093.00000000  .00000000  00000-0  00000-0 0  9993
2 91004  50.0000   0.0000 0000000   0.0000 135.0000 14.09232290    46
SIM_SAT_1_5
1 91005U 26001E   26093.00000000  .00000000  00000-0  00000-0 0  9994
2 91005  50.0000   0.0000 0000000   0.0000 180.0000 14.09232290    58
SIM_SAT_1_6
1 91006U 26001F   26093.00000000  .00000000  00000-0  00000-0 0  9995
2 91006  50.0000   0.0000 0000000   0.0000 225.0000 14.09232290    60
SIM_SAT_1_7
1 91007U 26001G   26093.00000000  .00000000  00000-0  00000-0 0  9996
2 91007  50.0000   0.0000 0000000   0.0000 270.0000 14.09232290    72
SIM_SAT_1_8
1 91008U 26001H   26093.00000000  .00000000  00000-0  00000-0 0  9997
2 91008  50.0000   0.0000 0000000   0.0000 315.0000 14.09232290    84
SIM_SAT_2_1
1 91009U 26001I   26093.00000000  .00000000  00000-0  00000-0 0  9998
2 91009  50.0000  22.5000 0000000   0.0000   5.6250 14.09232290    94
SIM_SAT_2_2
1 91010U 26001J   26093.00000000  .00000000  00000-0  00000-0 0  9990
2 91010  50.0000  22.5000 0000000   0.0000  50.6250 14.09232290   108
SIM_SAT_2_3
1 91011U 26001K   26093.00000000  .00000000  00000-0  00000-0 0  9991
2 91011  50.0000  22.5000 0000000   0.0000  95.6250 14.09232290   119
SIM_SAT_2_4
1 91012U 26001L   26093.00000000  .00000000  00000-0  00000-0 0  9992
2 91012  50.0000  22.5000 0000000   0.0000 140.6250 14.09232290   122
SIM_SAT_2_5
1 91013U 26001M   26093.00000000  .00000000  00000-0  00000-0 0  9993
2 91013  50.0000  22.5000 0000000   0.0000 185.6250 14.09232290   133
SIM_SAT_2_6
1 91014U 26001N   26093.00000000  .00000000  00000-0  00000-0 0  9994
2 91014  50.0000  22.5000 0000000   0.0000 230.6250 14.09232290   146
SIM_SAT_2_7
1 91015U 26001O   26093.00000000  .00000000  00000-0  00000-0 0  9995
2 91015  50.0000  22.5000 0000000   0.0000 275.6250 14.09232290   157
SIM_SAT_2_8
1 91016U 26001P   26093.00000000  .00000000  00000-0  00000-0 0  9996
2 91016  50.0000  22.5000 0000000   0.0000 320.6250 14.09232290   160
SIM_SAT_3_1
1 91017U 26001Q   26093.00000000  .00000000  00000-0  00000-0 0  9997
2 91017  50.0000  45.0000 0000000   0.0000  11.2500 14.09232290   173
SIM_SAT_3_2
1 91018U 26001R   26093.00000000  .00000000  00000-0  00000-0 0  9998
2 91018  50.0000  45.0000 0000000   0.0000  56.2500 14.09232290   184
SIM_SAT_3_3
1 91019U 26001S   26093.00000000  .00000000  00000-0  00000-0 0  9999
2 91019  50.0000  45.0000 0000000   0.0000 101.2500 14.09232290   197
SIM_SAT_3_4
1 91020U 26001T   26093.00000000  .00000000  00000-0  00000-0 0  9991
2 91020  50.0000  45.0000 0000000   0.0000 146.2500 14.09232290   200
SIM_SAT_3_5
1 91021U 26001U   26093.00000000  .00000000  00000-0  00000-0 0  9992
2 91021  50.0000  45.0000 0000000   0.0000 191.2500 14.09232290   212
SIM_SAT_3_6
1 91022U 26001V   26093.00000000  .00000000  00000-0  00000-0 0  9993
2 91022  50.0000  45.0000 0000000   0.0000 236.2500 14.09232290   224
SIM_SAT_3_7
1 91023U 26001W   26093.00000000  .00000000  00000-0  00000-0 0  9994
2 91023  50.0000  45.0000 0000000   0.0000 281.2500 14.09232290   236
SIM_SAT_3_8
1 91024U 26001X   26093.00000000  .00000000  00000-0  00000-0 0  9995
2 91024  50.0000  45.0000 0000000   0.0000 326.2500 14.09232290   248
SIM_SAT_4_1
1 91025U 26001Y   26093.00000000  .00000000  00000-0  00000-0 0  9996
2 91025  50.0000  67.5000 0000000   0.0000  16.8750 14.09232290   258
SIM_SAT_4_2
1 91026U 26001Z   26093.00000000  .00000000  00000-0  00000-0 0  9997
2 91026  50.0000  67.5000 0000000   0.0000  61.8750 14.09232290   260
SIM_SAT_4_3
1 91027U 26001AA  26093.00000000  .00000000  00000-0  00000-0 0  9998
2 91027  50.0000  67.5000 0000000   0.0000 106.8750 14.09232290   272
SIM_SAT_4_4
1 91028U 26001AB  26093.00000000  .00000000  00000-0  00000-0 0  9999
2 91028  50.0000  67.5000 0000000   0.0000 151.8750 14.09232290   284
SIM_SAT_4_5
1 91029U 26001AC  26093.00000000  .00000000  00000-0  00000-0 0  9990
2 91029  50.0000  67.5000 0000000   0.0000 196.8750 14.09232290   295
SIM_SAT_4_6
1 91030U 26001AD  26093.00000000  .00000000  00000-0  00000-0 0  9992
2 91030  50.0000  67.5000 0000000   0.0000 241.8750 14.09232290   300
SIM_SAT_4_7
1 91031U 26001AE  26093.00000000  .00000000  00000-0  00000-0 0  9993
2 91031  50.0000  67.5000 0000000   0.0000 286.8750 14.09232290   311
SIM_SAT_4_8
1 91032U 26001AF  26093.00000000  .00000000  00000-0  00000-0 0  9994
2 91032  50.0000  67.5000 0000000   0.0000 331.8750 14.09232290   324
SIM_SAT_5_1
1 91033U 26001AG  26093.00000000  .00000000  00000-0  00000-0 0  9995
2 91033  50.0000  90.0000 0000000   0.0000  22.5000 14.09232290   339
SIM_SAT_5_2
1 91034U 26001AH  26093.00000000  .00000000  00000-0  00000-0 0  9996
2 91034  50.0000  90.0000 0000000   0.0000  67.5000 14.09232290   340
SIM_SAT_5_3
1 91035U 26001AI  26093.00000000  .00000000  00000-0  00000-0 0  9997
2 91035  50.0000  90.0000 0000000   0.0000 112.5000 14.09232290   353
SIM_SAT_5_4
1 91036U 26001AJ  26093.00000000  .00000000  00000-0  00000-0 0  9998
2 91036  50.0000  90.0000 0000000   0.0000 157.5000 14.09232290   364
SIM_SAT_5_5
1 91037U 26001AK  26093.00000000  .00000000  00000-0  00000-0 0  9999
2 91037  50.0000  90.0000 0000000   0.0000 202.5000 14.09232290   377
SIM_SAT_5_6
1 91038U 26001AL  26093.00000000  .00000000  00000-0  00000-0 0  9990
2 91038  50.0000  90.0000 0000000   0.0000 247.5000 14.09232290   388
SIM_SAT_5_7
1 91039U 26001AM  26093.00000000  .00000000  00000-0  00000-0 0  9991
2 91039  50.0000  90.0000 0000000   0.0000 292.5000 14.09232290   390
SIM_SAT_5_8
1 91040U 26001AN  26093.00000000  .00000000  00000-0  00000-0 0  9993
2 91040  50.0000  90.0000 0000000   0.0000 337.5000 14.09232290   404
SIM_SAT_6_1
1 91041U 26001AO  26093.00000000  .00000000  00000-0  00000-0 0  9994
2 91041  50.0000 112.5000 0000000   0.0000  28.1250 14.09232290   416
SIM_SAT_6_2
1 91042U 26001AP  26093.00000000  .00000000  00000-0  00000-0 0  9995
2 91042  50.0000 112.5000 0000000   0.0000  73.1250 14.09232290   428
SIM_SAT_6_3
1 91043U 26001AQ  26093.00000000  .00000000  00000-0  00000-0 0  9996
2 91043  50.0000 112.5000 0000000   0.0000 118.1250 14.09232290   430
SIM_SAT_6_4
1 91044U 26001AR  26093.00000000  .00000000  00000-0  00000-0 0  9997
2 91044  50.0000 112.5000 0000000   0.0000 163.1250 14.09232290   442
SIM_SAT_6_5
1 91045U 26001AS  26093.00000000  .00000000  00000-0  00000-0 0  9998
2 91045  50.0000 112.5000 0000000   0.0000 208.1250 14.09232290   454
SIM_SAT_6_6
1 91046U 26001AT  26093.00000000  .00000000  00000-0  00000-0 0  9999
2 91046  50.0000 112.5000 0000000   0.0000 253.1250 14.09232290   466
SIM_SAT_6_7
1 91047U 26001AU  26093.00000000  .00000000  00000-0  00000-0 0  9990
2 91047  50.0000 112.5000 0000000   0.0000 298.1250 14.09232290   477
SIM_SAT_6_8
1 91048U 26001AV  26093.00000000  .00000000  00000-0  00000-0 0  9991
2 91048  50.0000 112.5000 0000000   0.0000 343.1250 14.09232290   480
SIM_SAT_7_1
1 91049U 26001AW  26093.00000000  .00000000  00000-0  00000-0 0  9992
2 91049  50.0000 135.0000 0000000   0.0000  33.7500 14.09232290   492
SIM_SAT_7_2
1 91050U 26001AX  26093.00000000  .00000000  00000-0  00000-0 0  9994
2 91050  50.0000 135.0000 0000000   0.0000  78.7500 14.09232290   505
SIM_SAT_7_3
1 91051U 26001AY  26093.00000000  .00000000  00000-0  00000-0 0  9995
2 91051  50.0000 135.0000 0000000   0.0000 123.7500 14.09232290   518
SIM_SAT_7_4
1 91052U 26001AZ  26093.00000000  .00000000  00000-0  00000-0 0  9996
2 91052  50.0000 135.0000 0000000   0.0000 168.7500 14.09232290   529
SIM_SAT_7_5
1 91053U 26001BA  26093.00000000  .00000000  00000-0  00000-0 0  9997
2 91053  50.0000 135.0000 0000000   0.0000 213.7500 14.09232290   532
SIM_SAT_7_6
1 91054U 26001BB  26093.00000000  .00000000  00000-0  00000-0 0  9998
2 91054  50.0000 135.0000 0000000   0.0000 258.7500 14.09232290   543
SIM_SAT_7_7
1 91055U 26001BC  26093.00000000  .00000000  00000-0  00000-0 0  9999
2 91055  50.0000 135.0000 0000000   0.0000 303.7500 14.09232290   556
SIM_SAT_7_8
1 91056U 26001BD  26093.00000000  .00000000  00000-0  00000-0 0  9990
2 91056  50.0000 135.0000 0000000   0.0000 348.7500 14.09232290   567
SIM_SAT_8_1
1 91057U 26001BE  26093.00000000  .00000000  00000-0  00000-0 0  9991
2 91057  50.0000 157.5000 0000000   0.0000  39.3750 14.09232290   578
SIM_SAT_8_2
1 91058U 26001BF  26093.00000000  .00000000  00000-0  00000-0 0  9992
2 91058  50.0000 157.5000 0000000   0.0000  84.3750 14.09232290   580
SIM_SAT_8_3
1 91059U 26001BG  26093.00000000  .00000000  00000-0  00000-0 0  9993
2 91059  50.0000 157.5000 0000000   0.0000 129.3750 14.09232290   592
SIM_SAT_8_4
1 91060U 26001BH  26093.00000000  .00000000  00000-0  00000-0 0  9995
2 91060  50.0000 157.5000 0000000   0.0000 174.3750 14.09232290   606
SIM_SAT_8_5
1 91061U 26001BI  26093.00000000  .00000000  00000-0  00000-0 0  9996
2 91061  50.0000 157.5000 0000000   0.0000 219.3750 14.09232290   618
SIM_SAT_8_6
1 91062U 26001BJ  26093.00000000  .00000000  00000-0  00000-0 0  9997
2 91062  50.0000 157.5000 0000000   0.0000 264.3750 14.09232290   620
SIM_SAT_8_7
1 91063U 26001BK  26093.00000000  .00000000  00000-0  00000-0 0  9998
2 91063  50.0000 157.5000 0000000   0.0000 309.3750 14.09232290   632
SIM_SAT_8_8
1 91064U 26001BL  26093.00000000  .00000000  00000-0  00000-0 0  9999
2 91064  50.0000 157.5000 0000000   0.0000 354.3750 14.09232290   644
